{"type":"FeatureCollection","features":[{"type":"Feature","geometry":{"type":"Point","coordinates":[106.5995759,10.7703543]},"properties":{"area_label":"Quận Bình Tân","property_type":"apartment","median_price_per_m2":40900735.294117644,"price_per_m2_q25":35937500.0,"price_per_m2_q75":46774193.548387095,"n_properties":12,"geo_precision_tier":"DISTRICT_APPROXIMATE"}},{"type":"Feature","geometry":{"type":"Point","coordinates":[106.729695,10.731728]},"properties":{"area_label":"Quận 7","property_type":"land","median_price_per_m2":103662733.52999017,"price_per_m2_q25":100000000.0,"price_per_m2_q75":139800000.0,"n_properties":8,"geo_precision_tier":"DISTRICT_APPROXIMATE"}},{"type":"Feature","geometry":{"type":"Point","coordinates":[106.6642083,10.8612652]},"properties":{"area_label":"Quận 12","property_type":"apartment","median_price_per_m2":41379310.344827585,"price_per_m2_q25":32448979.591836736,"price_per_m2_q75":46153846.15384616,"n_properties":11,"geo_precision_tier":"DISTRICT_APPROXIMATE"}},{"type":"Feature","geometry":{"type":"Point","coordinates":[106.6797643,10.8010061]},"properties":{"area_label":"Quận Phú Nhuận","property_type":"apartment","median_price_per_m2":69612903.22580644,"price_per_m2_q25":69333333.33333333,"price_per_m2_q75":74285714.28571428,"n_properties":4,"geo_precision_tier":"DISTRICT_APPROXIMATE"}},{"type":"Feature","geometry":{"type":"Point","coordinates":[106.5097461,11.0967072]},"properties":{"area_label":"Huyện Củ Chi","property_type":"land","median_price_per_m2":4890109.89010989,"price_per_m2_q25":2181372.5490196077,"price_per_m2_q75":9259259.25925926,"n_properties":39,"geo_precision_tier":"DISTRICT_APPROXIMATE"}},{"type":"Feature","geometry":{"type":"Point","coordinates":[106.7460498,10.8052466]},"properties":{"area_label":"Thành phố Thủ Đức","property_type":"land","median_price_per_m2":79260228.68163659,"price_per_m2_q25":70526315.78947368,"price_per_m2_q75":90000000.0,"n_properties":34,"geo_precision_tier":"DISTRICT_APPROXIMATE"}},{"type":"Feature","geometry":{"type":"Point","coordinates":[106.5097461,11.0967072]},"properties":{"area_label":"Huyện Củ Chi","property_type":"house","median_price_per_m2":16519480.519480519,"price_per_m2_q25":11038961.03896104,"price_per_m2_q75":22000000.0,"n_properties":2,"geo_precision_tier":"DISTRICT_APPROXIMATE"}},{"type":"Feature","geometry":{"type":"Point","coordinates":[106.5909297,10.6950833]},"properties":{"area_label":"Huyện Bình Chánh","property_type":"land","median_price_per_m2":15642857.142857142,"price_per_m2_q25":5697566.984909147,"price_per_m2_q75":48523206.75105485,"n_properties":16,"geo_precision_tier":"DISTRICT_APPROXIMATE"}},{"type":"Feature","geometry":{"type":"Point","coordinates":[106.7258641,10.6510014]},"properties":{"area_label":"Huyện Nhà Bè","property_type":"land","median_price_per_m2":80681818.18181819,"price_per_m2_q25":48387096.77419355,"price_per_m2_q75":95000000.0,"n_properties":18,"geo_precision_tier":"DISTRICT_APPROXIMATE"}},{"type":"Feature","geometry":{"type":"Point","coordinates":[106.6607778,10.8030699]},"properties":{"area_label":"Quận Tân Bình","property_type":"house","median_price_per_m2":183121019.10828024,"price_per_m2_q25":170090168.3610829,"price_per_m2_q75":228125000.0,"n_properties":6,"geo_precision_tier":"DISTRICT_APPROXIMATE"}},{"type":"Feature","geometry":{"type":"Point","coordinates":[106.7460498,10.8052466]},"properties":{"area_label":"Thành phố Thủ Đức","property_type":"house","median_price_per_m2":113750000.0,"price_per_m2_q25":95370370.37037037,"price_per_m2_q75":300000000.0,"n_properties":7,"geo_precision_tier":"DISTRICT_APPROXIMATE"}},{"type":"Feature","geometry":{"type":"Point","coordinates":[106.6659208,10.7417794]},"properties":{"area_label":"Quận 8","property_type":"apartment","median_price_per_m2":38913043.47826087,"price_per_m2_q25":18013698.630136985,"price_per_m2_q75":50000000.0,"n_properties":3,"geo_precision_tier":"DISTRICT_APPROXIMATE"}},{"type":"Feature","geometry":{"type":"Point","coordinates":[106.5909297,10.6950833]},"properties":{"area_label":"Huyện Bình Chánh","property_type":"apartment","median_price_per_m2":46610169.49152543,"price_per_m2_q25":20909090.90909091,"price_per_m2_q75":56521739.13043478,"n_properties":9,"geo_precision_tier":"DISTRICT_APPROXIMATE"}},{"type":"Feature","geometry":{"type":"Point","coordinates":[106.5760523,10.8777329]},"properties":{"area_label":"Huyện Hóc Môn","property_type":"land","median_price_per_m2":18481182.795698926,"price_per_m2_q25":10638031.914893618,"price_per_m2_q75":36764705.88235294,"n_properties":16,"geo_precision_tier":"DISTRICT_APPROXIMATE"}},{"type":"Feature","geometry":{"type":"Point","coordinates":[106.6277515,10.7918681]},"properties":{"area_label":"Quận Tân Phú","property_type":"apartment","median_price_per_m2":54807692.307692304,"price_per_m2_q25":48750000.0,"price_per_m2_q75":56451612.90322581,"n_properties":29,"geo_precision_tier":"DISTRICT_APPROXIMATE"}},{"type":"Feature","geometry":{"type":"Point","coordinates":[106.7460498,10.8052466]},"properties":{"area_label":"Thành phố Thủ Đức","property_type":"apartment","median_price_per_m2":53061224.489795916,"price_per_m2_q25":28916666.666666668,"price_per_m2_q75":83565459.61002786,"n_properties":7,"geo_precision_tier":"DISTRICT_APPROXIMATE"}},{"type":"Feature","geometry":{"type":"Point","coordinates":[106.5995759,10.7703543]},"properties":{"area_label":"Quận Bình Tân","property_type":"house","median_price_per_m2":84047619.04761904,"price_per_m2_q25":62500000.0,"price_per_m2_q75":121428571.42857143,"n_properties":8,"geo_precision_tier":"DISTRICT_APPROXIMATE"}},{"type":"Feature","geometry":{"type":"Point","coordinates":[106.6642083,10.8612652]},"properties":{"area_label":"Quận 12","property_type":"house","median_price_per_m2":79769841.26984127,"price_per_m2_q25":65486725.663716815,"price_per_m2_q75":100900000.0,"n_properties":32,"geo_precision_tier":"DISTRICT_APPROXIMATE"}},{"type":"Feature","geometry":{"type":"Point","coordinates":[106.6642083,10.8612652]},"properties":{"area_label":"Quận 12","property_type":"land","median_price_per_m2":53977272.72727273,"price_per_m2_q25":37916666.666666664,"price_per_m2_q75":94993498.04941481,"n_properties":30,"geo_precision_tier":"DISTRICT_APPROXIMATE"}},{"type":"Feature","geometry":{"type":"Point","coordinates":[106.6912637,10.7766983]},"properties":{"area_label":"Quận 3","property_type":"house","median_price_per_m2":571521787.215218,"price_per_m2_q25":366666666.6666667,"price_per_m2_q75":967741935.483871,"n_properties":4,"geo_precision_tier":"DISTRICT_APPROXIMATE"}},{"type":"Feature","geometry":{"type":"Point","coordinates":[106.7258641,10.6510014]},"properties":{"area_label":"Huyện Nhà Bè","property_type":"apartment","median_price_per_m2":67142857.14285715,"price_per_m2_q25":45000000.0,"price_per_m2_q75":72368421.05263157,"n_properties":7,"geo_precision_tier":"DISTRICT_APPROXIMATE"}},{"type":"Feature","geometry":{"type":"Point","coordinates":[106.5995759,10.7703543]},"properties":{"area_label":"Quận Bình Tân","property_type":"land","median_price_per_m2":79338842.97520661,"price_per_m2_q25":58064516.12903226,"price_per_m2_q75":102117647.05882353,"n_properties":19,"geo_precision_tier":"DISTRICT_APPROXIMATE"}},{"type":"Feature","geometry":{"type":"Point","coordinates":[106.6984862,10.7753939]},"properties":{"area_label":"Quận 1","property_type":"house","median_price_per_m2":353591160.2209945,"price_per_m2_q25":210526315.78947368,"price_per_m2_q75":409523809.52380955,"n_properties":5,"geo_precision_tier":"DISTRICT_APPROXIMATE"}},{"type":"Feature","geometry":{"type":"Point","coordinates":[106.6607778,10.8030699]},"properties":{"area_label":"Quận Tân Bình","property_type":"apartment","median_price_per_m2":54000000.0,"price_per_m2_q25":49791666.666666664,"price_per_m2_q75":66666666.666666664,"n_properties":3,"geo_precision_tier":"DISTRICT_APPROXIMATE"}},{"type":"Feature","geometry":{"type":"Point","coordinates":[106.7053184,10.7957801]},"properties":{"area_label":"Quận Bình Thạnh","property_type":"apartment","median_price_per_m2":60093167.70186335,"price_per_m2_q25":57142857.14285714,"price_per_m2_q75":63043478.26086956,"n_properties":2,"geo_precision_tier":"DISTRICT_APPROXIMATE"}},{"type":"Feature","geometry":{"type":"Point","coordinates":[106.6740337,10.8353538]},"properties":{"area_label":"Quận Gò Vấp","property_type":"apartment","median_price_per_m2":40740740.74074074,"price_per_m2_q25":40000000.0,"price_per_m2_q75":74545454.54545455,"n_properties":13,"geo_precision_tier":"DISTRICT_APPROXIMATE"}},{"type":"Feature","geometry":{"type":"Point","coordinates":[106.6740337,10.8353538]},"properties":{"area_label":"Quận Gò Vấp","property_type":"house","median_price_per_m2":102222222.22222222,"price_per_m2_q25":99686028.25745682,"price_per_m2_q75":115927419.3548387,"n_properties":9,"geo_precision_tier":"DISTRICT_APPROXIMATE"}},{"type":"Feature","geometry":{"type":"Point","coordinates":[106.6912637,10.7766983]},"properties":{"area_label":"Quận 3","property_type":"apartment","median_price_per_m2":58570198.10508183,"price_per_m2_q25":52325581.39534884,"price_per_m2_q75":64814814.81481481,"n_properties":2,"geo_precision_tier":"DISTRICT_APPROXIMATE"}},{"type":"Feature","geometry":{"type":"Point","coordinates":[106.6797643,10.8010061]},"properties":{"area_label":"Quận Phú Nhuận","property_type":"land","median_price_per_m2":222285774.81199026,"price_per_m2_q25":133460438.51286939,"price_per_m2_q75":311111111.1111111,"n_properties":2,"geo_precision_tier":"DISTRICT_APPROXIMATE"}},{"type":"Feature","geometry":{"type":"Point","coordinates":[106.6797643,10.8010061]},"properties":{"area_label":"Quận Phú Nhuận","property_type":"house","median_price_per_m2":147826086.95652175,"price_per_m2_q25":134375000.0,"price_per_m2_q75":260000000.0,"n_properties":9,"geo_precision_tier":"DISTRICT_APPROXIMATE"}},{"type":"Feature","geometry":{"type":"Point","coordinates":[106.6984862,10.7753939]},"properties":{"area_label":"Quận 1","property_type":"other","median_price_per_m2":158054480.6130966,"price_per_m2_q25":47993019.19720768,"price_per_m2_q75":268115942.0289855,"n_properties":2,"geo_precision_tier":"DISTRICT_APPROXIMATE"}},{"type":"Feature","geometry":{"type":"Point","coordinates":[106.6659208,10.7417794]},"properties":{"area_label":"Quận 8","property_type":"house","median_price_per_m2":123675213.67521368,"price_per_m2_q25":108888888.8888889,"price_per_m2_q75":138461538.46153846,"n_properties":2,"geo_precision_tier":"DISTRICT_APPROXIMATE"}},{"type":"Feature","geometry":{"type":"Point","coordinates":[106.729695,10.731728]},"properties":{"area_label":"Quận 7","property_type":"house","median_price_per_m2":115384615.38461539,"price_per_m2_q25":72222222.22222222,"price_per_m2_q75":128301886.79245283,"n_properties":5,"geo_precision_tier":"DISTRICT_APPROXIMATE"}},{"type":"Feature","geometry":{"type":"Point","coordinates":[106.6642083,10.8612652]},"properties":{"area_label":"Quận 12","property_type":"other","median_price_per_m2":40517241.37931035,"price_per_m2_q25":40517241.37931035,"price_per_m2_q75":40517241.37931035,"n_properties":1,"geo_precision_tier":"DISTRICT_APPROXIMATE"}},{"type":"Feature","geometry":{"type":"Point","coordinates":[106.6984862,10.7753939]},"properties":{"area_label":"Quận 1","property_type":"land","median_price_per_m2":521607904.7306484,"price_per_m2_q25":397111913.3574007,"price_per_m2_q75":646103896.1038961,"n_properties":2,"geo_precision_tier":"DISTRICT_APPROXIMATE"}},{"type":"Feature","geometry":{"type":"Point","coordinates":[106.6740337,10.8353538]},"properties":{"area_label":"Quận Gò Vấp","property_type":"land","median_price_per_m2":77618299.80831851,"price_per_m2_q25":41304347.82608695,"price_per_m2_q75":96368715.08379889,"n_properties":6,"geo_precision_tier":"DISTRICT_APPROXIMATE"}},{"type":"Feature","geometry":{"type":"Point","coordinates":[106.6277515,10.7918681]},"properties":{"area_label":"Quận Tân Phú","property_type":"land","median_price_per_m2":8954545.454545455,"price_per_m2_q25":8954545.454545455,"price_per_m2_q75":8954545.454545455,"n_properties":2,"geo_precision_tier":"DISTRICT_APPROXIMATE"}},{"type":"Feature","geometry":{"type":"Point","coordinates":[106.5909297,10.6950833]},"properties":{"area_label":"Huyện Bình Chánh","property_type":"house","median_price_per_m2":40625000.0,"price_per_m2_q25":40625000.0,"price_per_m2_q75":40625000.0,"n_properties":1,"geo_precision_tier":"DISTRICT_APPROXIMATE"}},{"type":"Feature","geometry":{"type":"Point","coordinates":[106.9086984,10.396588]},"properties":{"area_label":"Huyện Cần Giờ","property_type":"land","median_price_per_m2":15661616.161616161,"price_per_m2_q25":3545454.5454545454,"price_per_m2_q75":27777777.777777776,"n_properties":2,"geo_precision_tier":"DISTRICT_APPROXIMATE"}},{"type":"Feature","geometry":{"type":"Point","coordinates":[106.7053184,10.7957801]},"properties":{"area_label":"Quận Bình Thạnh","property_type":"other","median_price_per_m2":56179775.28089888,"price_per_m2_q25":56179775.28089888,"price_per_m2_q75":56179775.28089888,"n_properties":1,"geo_precision_tier":"DISTRICT_APPROXIMATE"}},{"type":"Feature","geometry":{"type":"Point","coordinates":[106.5995759,10.7703543]},"properties":{"area_label":"Quận Bình Tân","property_type":"other","median_price_per_m2":60000000.0,"price_per_m2_q25":60000000.0,"price_per_m2_q75":60000000.0,"n_properties":1,"geo_precision_tier":"DISTRICT_APPROXIMATE"}},{"type":"Feature","geometry":{"type":"Point","coordinates":[106.7053184,10.7957801]},"properties":{"area_label":"Quận Bình Thạnh","property_type":"land","median_price_per_m2":214887018.1657067,"price_per_m2_q25":214887018.1657067,"price_per_m2_q75":214887018.1657067,"n_properties":1,"geo_precision_tier":"DISTRICT_APPROXIMATE"}},{"type":"Feature","geometry":{"type":"Point","coordinates":[106.6483103,10.7702835]},"properties":{"area_label":"Quận 11","property_type":"apartment","median_price_per_m2":56153846.15384615,"price_per_m2_q25":56153846.15384615,"price_per_m2_q75":56153846.15384615,"n_properties":1,"geo_precision_tier":"DISTRICT_APPROXIMATE"}},{"type":"Feature","geometry":{"type":"Point","coordinates":[106.6277515,10.7918681]},"properties":{"area_label":"Quận Tân Phú","property_type":"house","median_price_per_m2":146428571.42857143,"price_per_m2_q25":82500000.0,"price_per_m2_q75":232812500.0,"n_properties":3,"geo_precision_tier":"DISTRICT_APPROXIMATE"}},{"type":"Feature","geometry":{"type":"Point","coordinates":[106.729695,10.731728]},"properties":{"area_label":"Quận 7","property_type":"apartment","median_price_per_m2":71246031.74603175,"price_per_m2_q25":52777777.777777776,"price_per_m2_q75":90909090.9090909,"n_properties":4,"geo_precision_tier":"DISTRICT_APPROXIMATE"}},{"type":"Feature","geometry":{"type":"Point","coordinates":[106.6912637,10.7766983]},"properties":{"area_label":"Quận 3","property_type":"other","median_price_per_m2":2187536.9516376965,"price_per_m2_q25":2187536.9516376965,"price_per_m2_q75":2187536.9516376965,"n_properties":1,"geo_precision_tier":"DISTRICT_APPROXIMATE"}},{"type":"Feature","geometry":{"type":"Point","coordinates":[106.6984862,10.7753939]},"properties":{"area_label":"Quận 1","property_type":"apartment","median_price_per_m2":69852941.1764706,"price_per_m2_q25":69852941.1764706,"price_per_m2_q75":69852941.1764706,"n_properties":1,"geo_precision_tier":"DISTRICT_APPROXIMATE"}},{"type":"Feature","geometry":{"type":"Point","coordinates":[106.6483103,10.7702835]},"properties":{"area_label":"Quận 11","property_type":"house","median_price_per_m2":115833333.33333333,"price_per_m2_q25":115833333.33333333,"price_per_m2_q75":115833333.33333333,"n_properties":1,"geo_precision_tier":"DISTRICT_APPROXIMATE"}},{"type":"Feature","geometry":{"type":"Point","coordinates":[106.5760523,10.8777329]},"properties":{"area_label":"Huyện Hóc Môn","property_type":"other","median_price_per_m2":49090909.09090909,"price_per_m2_q25":49090909.09090909,"price_per_m2_q75":49090909.09090909,"n_properties":1,"geo_precision_tier":"DISTRICT_APPROXIMATE"}}]}