{"type":"FeatureCollection","features":[{"type":"Feature","geometry":{"type":"Point","coordinates":[106.698,10.7724]},"properties":{"name":"Ben Thanh"}},{"type":"Feature","geometry":{"type":"Point","coordinates":[106.703,10.7765]},"properties":{"name":"Nha Hat Thanh Pho"}},{"type":"Feature","geometry":{"type":"Point","coordinates":[106.708,10.7838]},"properties":{"name":"Ba Son"}},{"type":"Feature","geometry":{"type":"Point","coordinates":[106.715,10.7955]},"properties":{"name":"Van Thanh"}},{"type":"Feature","geometry":{"type":"Point","coordinates":[106.7205,10.801]},"properties":{"name":"Tan Cang"}},{"type":"Feature","geometry":{"type":"Point","coordinates":[106.737,10.8047]},"properties":{"name":"Thao Dien"}},{"type":"Feature","geometry":{"type":"Point","coordinates":[106.746,10.802]},"properties":{"name":"An Phu"}},{"type":"Feature","geometry":{"type":"Point","coordinates":[106.755,10.809]},"properties":{"name":"Rach Chiec"}},{"type":"Feature","geometry":{"type":"Point","coordinates":[106.765,10.823]},"properties":{"name":"Phuoc Long"}},{"type":"Feature","geometry":{"type":"Point","coordinates":[106.772,10.837]},"properties":{"name":"Binh Thai"}},{"type":"Feature","geometry":{"type":"Point","coordinates":[106.771,10.85]},"properties":{"name":"Thu Duc"}},{"type":"Feature","geometry":{"type":"Point","coordinates":[106.789,10.862]},"properties":{"name":"Khu Cong Nghe Cao"}},{"type":"Feature","geometry":{"type":"Point","coordinates":[106.802,10.87]},"properties":{"name":"Dai Hoc Quoc Gia"}},{"type":"Feature","geometry":{"type":"Point","coordinates":[106.806,10.877]},"properties":{"name":"Ben Xe Suoi Tien"}}]}