{"type":"FeatureCollection","features":[{"type":"Feature","geometry":{"type":"Point","coordinates":[106.6696539,10.7579256]},"properties":{"i":6,"property_type":"apartment","price_per_m2":63636364.0,"price_total":3500000000.0,"area_m2":55.0,"ward":"Phường 9","district":"Quận 5","n_listings":1}},{"type":"Feature","geometry":{"type":"Point","coordinates":[106.7539774,10.8520544]},"properties":{"i":18,"property_type":"land","price_per_m2":65714286.0,"price_total":4600000000.0,"area_m2":70.0,"ward":"Linh Xuân","district":"Thành phố Thủ Đức","n_listings":1}},{"type":"Feature","geometry":{"type":"Point","coordinates":[106.7494714,10.8041384]},"properties":{"i":21,"property_type":"apartment","price_per_m2":59659091.0,"price_total":5250000000.0,"area_m2":88.0,"ward":"An Phú","district":"Thành phố Thủ Đức","n_listings":1}},{"type":"Feature","geometry":{"type":"Point","coordinates":[106.7450764,10.8485602]},"properties":{"i":26,"property_type":"land","price_per_m2":47384615.0,"price_total":7700000000.0,"area_m2":162.5,"ward":"Phường Linh Đông","district":"Thành phố Thủ Đức","n_listings":1}},{"type":"Feature","geometry":{"type":"Point","coordinates":[106.7694171,10.8820799]},"properties":{"i":47,"property_type":"land","price_per_m2":40000000.0,"price_total":8000000000.0,"area_m2":200.0,"ward":"Phường Linh Xuân","district":"Thành phố Thủ Đức","n_listings":1}},{"type":"Feature","geometry":{"type":"Point","coordinates":[106.6394986,10.7895074]},"properties":{"i":48,"property_type":"apartment","price_per_m2":50000000.0,"price_total":4200000000.0,"area_m2":84.0,"ward":"Tân Thành","district":"Quận Tân Phú","n_listings":1}},{"type":"Feature","geometry":{"type":"Point","coordinates":[106.6222679,10.8308138]},"properties":{"i":60,"property_type":"house","price_per_m2":88095238.0,"price_total":7400000000.0,"area_m2":84.0,"ward":"Tân Hưng Thuận","district":"Quận 12","n_listings":1}},{"type":"Feature","geometry":{"type":"Point","coordinates":[106.7041639,10.7301154]},"properties":{"i":72,"property_type":"apartment","price_per_m2":82608696.0,"price_total":9500000000.0,"area_m2":115.0,"ward":"Tân Phong","district":"Quận 7","n_listings":3}},{"type":"Feature","geometry":{"type":"Point","coordinates":[106.761616,10.770292]},"properties":{"i":76,"property_type":"land","price_per_m2":190476190.0,"price_total":20000000000.0,"area_m2":105.0,"ward":"Phường Thạnh Mỹ Lợi","district":"Thành phố Thủ Đức","n_listings":1}},{"type":"Feature","geometry":{"type":"Point","coordinates":[106.7665022,10.8558331]},"properties":{"i":89,"property_type":"land","price_per_m2":100000000.0,"price_total":10000000000.0,"area_m2":100.0,"ward":"Phường Linh Chiểu","district":"Thành phố Thủ Đức","n_listings":1}},{"type":"Feature","geometry":{"type":"Point","coordinates":[106.7087488,10.7305239]},"properties":{"i":90,"property_type":"apartment","price_per_m2":60000000.0,"price_total":4200000000.0,"area_m2":70.0,"ward":"Phường Tân Phú","district":"Quận 7","n_listings":1}},{"type":"Feature","geometry":{"type":"Point","coordinates":[106.6396287,10.7685039]},"properties":{"i":103,"property_type":"apartment","price_per_m2":64150943.0,"price_total":3400000000.0,"area_m2":53.0,"ward":"Phường Phú Thạnh","district":"Quận Tân Phú","n_listings":1}},{"type":"Feature","geometry":{"type":"Point","coordinates":[106.7663015,10.8530516]},"properties":{"i":109,"property_type":"land","price_per_m2":63636364.0,"price_total":10500000000.0,"area_m2":165.0,"ward":"Phường Linh Chiểu","district":"Thành phố Thủ Đức","n_listings":1}},{"type":"Feature","geometry":{"type":"Point","coordinates":[106.7591933,10.8454774]},"properties":{"i":123,"property_type":"land","price_per_m2":95313741.0,"price_total":12000000000.0,"area_m2":125.9,"ward":"Phường Trường Thọ","district":"Thành phố Thủ Đức","n_listings":1}},{"type":"Feature","geometry":{"type":"Point","coordinates":[106.8342883,10.8393841]},"properties":{"i":136,"property_type":"land","price_per_m2":66666667.0,"price_total":10000000000.0,"area_m2":150.0,"ward":"Phường Long Bình","district":"Thành phố Thủ Đức","n_listings":1}},{"type":"Feature","geometry":{"type":"Point","coordinates":[106.7633744,10.8603763]},"properties":{"i":154,"property_type":"land","price_per_m2":46875000.0,"price_total":3750000000.0,"area_m2":80.0,"ward":"Linh Xuân","district":"Thành phố Thủ Đức","n_listings":1}},{"type":"Feature","geometry":{"type":"Point","coordinates":[106.7255023,10.7372002]},"properties":{"i":158,"property_type":"apartment","price_per_m2":62000000.0,"price_total":7750000000.0,"area_m2":125.0,"ward":"Phường Tân Phú","district":"Quận 7","n_listings":1}},{"type":"Feature","geometry":{"type":"Point","coordinates":[106.6501697,10.8706159]},"properties":{"i":162,"property_type":"land","price_per_m2":26392962.0,"price_total":27000000000.0,"area_m2":1023.0,"ward":"Phường Hiệp Thành","district":"Quận 12","n_listings":1}},{"type":"Feature","geometry":{"type":"Point","coordinates":[106.6499732,10.7625111]},"properties":{"i":165,"property_type":"house","price_per_m2":184782609.0,"price_total":6800000000.0,"area_m2":36.8,"ward":"phường 8","district":"Quận 11","n_listings":1}},{"type":"Feature","geometry":{"type":"Point","coordinates":[106.7563536,10.8448291]},"properties":{"i":170,"property_type":"land","price_per_m2":91666667.0,"price_total":9900000000.0,"area_m2":108.0,"ward":"Phường Trường Thọ","district":"Thành phố Thủ Đức","n_listings":1}},{"type":"Feature","geometry":{"type":"Point","coordinates":[106.6419807,10.7702835]},"properties":{"i":175,"property_type":"house","price_per_m2":229268293.0,"price_total":4700000000.0,"area_m2":20.5,"ward":"P.3","district":"Quận 11","n_listings":1}},{"type":"Feature","geometry":{"type":"Point","coordinates":[106.7066318,10.8187169]},"properties":{"i":176,"property_type":"apartment","price_per_m2":76342282.0,"price_total":4550000000.0,"area_m2":59.6,"ward":"phường 13","district":"Quận Bình Thạnh","n_listings":1}},{"type":"Feature","geometry":{"type":"Point","coordinates":[106.6222679,10.8308138]},"properties":{"i":179,"property_type":"land","price_per_m2":60833333.0,"price_total":7300000000.0,"area_m2":120.0,"ward":"Tân Hưng Thuận","district":"Quận 12","n_listings":2}},{"type":"Feature","geometry":{"type":"Point","coordinates":[106.6540369,10.8609379]},"properties":{"i":189,"property_type":"house","price_per_m2":77500000.0,"price_total":2480000000.0,"area_m2":32.0,"ward":"Thới An","district":"Quận 12","n_listings":1}},{"type":"Feature","geometry":{"type":"Point","coordinates":[106.7156455,10.8246977]},"properties":{"i":195,"property_type":"house","price_per_m2":65104167.0,"price_total":12500000000.0,"area_m2":192.0,"ward":"Phường Hiệp Bình Chánh","district":"Thành phố Thủ Đức","n_listings":1}},{"type":"Feature","geometry":{"type":"Point","coordinates":[106.7041639,10.7301154]},"properties":{"i":202,"property_type":"apartment","price_per_m2":83750000.0,"price_total":8825000000.0,"area_m2":112.0,"ward":"Phường Tân Phong","district":"Quận 7","n_listings":2}},{"type":"Feature","geometry":{"type":"Point","coordinates":[106.7478149,10.8602395]},"properties":{"i":217,"property_type":"apartment","price_per_m2":53333333.0,"price_total":3200000000.0,"area_m2":60.0,"ward":"Phường Tam Bình","district":"Thành phố Thủ Đức","n_listings":1}},{"type":"Feature","geometry":{"type":"Point","coordinates":[106.7497306,10.7850639]},"properties":{"i":243,"property_type":"house","price_per_m2":294117647.0,"price_total":50000000000.0,"area_m2":170.0,"ward":"Phường An Phú","district":"Thành phố Thủ Đức","n_listings":1}},{"type":"Feature","geometry":{"type":"Point","coordinates":[106.8235276,10.8412073]},"properties":{"i":249,"property_type":"land","price_per_m2":54591837.0,"price_total":5350000000.0,"area_m2":98.0,"ward":"Phường Long Thạnh Mỹ","district":"Thành phố Thủ Đức","n_listings":1}},{"type":"Feature","geometry":{"type":"Point","coordinates":[106.6532293,10.86467]},"properties":{"i":253,"property_type":"house","price_per_m2":60526316.0,"price_total":6900000000.0,"area_m2":114.0,"ward":"Phường Thới An","district":"Quận 12","n_listings":1}},{"type":"Feature","geometry":{"type":"Point","coordinates":[106.7376503,10.7162517]},"properties":{"i":254,"property_type":"land","price_per_m2":92857143.0,"price_total":5200000000.0,"area_m2":56.0,"ward":"Phường Phú Thuận","district":"Quận 7","n_listings":1}},{"type":"Feature","geometry":{"type":"Point","coordinates":[106.6419807,10.7702835]},"properties":{"i":257,"property_type":"apartment","price_per_m2":42222222.0,"price_total":1900000000.0,"area_m2":45.0,"ward":"Phường 5","district":"Quận 11","n_listings":1}},{"type":"Feature","geometry":{"type":"Point","coordinates":[106.7663015,10.8530516]},"properties":{"i":262,"property_type":"land","price_per_m2":118032787.0,"price_total":7200000000.0,"area_m2":61.0,"ward":"P Linh Chiểu","district":"Thành phố Thủ Đức","n_listings":1}},{"type":"Feature","geometry":{"type":"Point","coordinates":[106.7293926,10.7062367]},"properties":{"i":317,"property_type":"land","price_per_m2":101307190.0,"price_total":15500000000.0,"area_m2":153.0,"ward":"Phường Phú Mỹ","district":"Quận 7","n_listings":1}},{"type":"Feature","geometry":{"type":"Point","coordinates":[106.7591933,10.8454774]},"properties":{"i":335,"property_type":"land","price_per_m2":37742631.0,"price_total":210000000000.0,"area_m2":5564.0,"ward":"phường trường thọ","district":"Thành phố Thủ Đức","n_listings":1}},{"type":"Feature","geometry":{"type":"Point","coordinates":[106.7694171,10.8820799]},"properties":{"i":354,"property_type":"land","price_per_m2":49462366.0,"price_total":4600000000.0,"area_m2":93.0,"ward":"Phường Linh Xuân","district":"Thành phố Thủ Đức","n_listings":1}},{"type":"Feature","geometry":{"type":"Point","coordinates":[106.7234415,10.8470439]},"properties":{"i":359,"property_type":"land","price_per_m2":73170732.0,"price_total":6000000000.0,"area_m2":82.0,"ward":"Phường Hiệp Bình Phước","district":"Thành phố Thủ Đức","n_listings":1}},{"type":"Feature","geometry":{"type":"Point","coordinates":[106.6172012,10.8596271]},"properties":{"i":409,"property_type":"house","price_per_m2":119444444.0,"price_total":8600000000.0,"area_m2":72.0,"ward":"Phường Trung Mỹ Tây","district":"Quận 12","n_listings":1}},{"type":"Feature","geometry":{"type":"Point","coordinates":[106.6501697,10.8706159]},"properties":{"i":412,"property_type":"house","price_per_m2":55434783.0,"price_total":5100000000.0,"area_m2":92.0,"ward":"Thới An","district":"Quận 12","n_listings":1}},{"type":"Feature","geometry":{"type":"Point","coordinates":[106.7234415,10.8470439]},"properties":{"i":436,"property_type":"land","price_per_m2":50000000.0,"price_total":2800000000.0,"area_m2":56.0,"ward":"Phường Hiệp Bình Phước","district":"Thành phố Thủ Đức","n_listings":1}},{"type":"Feature","geometry":{"type":"Point","coordinates":[106.6839931,10.7718359]},"properties":{"i":440,"property_type":"house","price_per_m2":365695793.0,"price_total":33900000000.0,"area_m2":92.7,"ward":"Phường 5","district":"Quận 3","n_listings":1}},{"type":"Feature","geometry":{"type":"Point","coordinates":[106.7473592,10.7646259]},"properties":{"i":443,"property_type":"apartment","price_per_m2":45572917.0,"price_total":1750000000.0,"area_m2":38.4,"ward":"Phường Tân Thuận Đông","district":"Quận 7","n_listings":1}},{"type":"Feature","geometry":{"type":"Point","coordinates":[106.7694171,10.8820799]},"properties":{"i":481,"property_type":"land","price_per_m2":33333333.0,"price_total":4000000000.0,"area_m2":120.0,"ward":"Phường Linh Xuân","district":"Thành phố Thủ Đức","n_listings":1}},{"type":"Feature","geometry":{"type":"Point","coordinates":[106.6532293,10.86467]},"properties":{"i":508,"property_type":"land","price_per_m2":64285714.0,"price_total":9000000000.0,"area_m2":140.0,"ward":"Phường Thới An","district":"Quận 12","n_listings":1}},{"type":"Feature","geometry":{"type":"Point","coordinates":[106.6419807,10.7702835]},"properties":{"i":517,"property_type":"house","price_per_m2":125000000.0,"price_total":1500000000.0,"area_m2":12.0,"ward":"P.3","district":"Quận 11","n_listings":1}},{"type":"Feature","geometry":{"type":"Point","coordinates":[106.7335407,10.8671903]},"properties":{"i":549,"property_type":"house","price_per_m2":54744526.0,"price_total":7500000000.0,"area_m2":137.0,"ward":"Phường Tam Bình","district":"Thành phố Thủ Đức","n_listings":1}},{"type":"Feature","geometry":{"type":"Point","coordinates":[106.7041639,10.7301154]},"properties":{"i":560,"property_type":"apartment","price_per_m2":65049929.0,"price_total":4560000000.0,"area_m2":70.1,"ward":"Tân Phong","district":"Quận 7","n_listings":1}},{"type":"Feature","geometry":{"type":"Point","coordinates":[106.7460163,10.7967333]},"properties":{"i":579,"property_type":"land","price_per_m2":350000000.0,"price_total":49000000000.0,"area_m2":140.0,"ward":"Phường An Phú","district":"Thành phố Thủ Đức","n_listings":1}},{"type":"Feature","geometry":{"type":"Point","coordinates":[106.6419807,10.7702835]},"properties":{"i":590,"property_type":"apartment","price_per_m2":50757576.0,"price_total":3350000000.0,"area_m2":66.0,"ward":"Phường 5","district":"Quận 11","n_listings":1}},{"type":"Feature","geometry":{"type":"Point","coordinates":[106.7227082,10.7999587]},"properties":{"i":596,"property_type":"land","price_per_m2":114127717.0,"price_total":41999000000.0,"area_m2":368.0,"ward":"Phường 25","district":"Quận Bình Thạnh","n_listings":1}},{"type":"Feature","geometry":{"type":"Point","coordinates":[106.8342883,10.8393841]},"properties":{"i":608,"property_type":"apartment","price_per_m2":47101449.0,"price_total":3250000000.0,"area_m2":69.0,"ward":"Long Bình","district":"Thành phố Thủ Đức","n_listings":1}},{"type":"Feature","geometry":{"type":"Point","coordinates":[106.6532293,10.86467]},"properties":{"i":612,"property_type":"land","price_per_m2":85000000.0,"price_total":85000000000.0,"area_m2":1000.0,"ward":"Phường Thới An","district":"Quận 12","n_listings":1}},{"type":"Feature","geometry":{"type":"Point","coordinates":[106.6999141,10.8338577]},"properties":{"i":628,"property_type":"land","price_per_m2":133333333.0,"price_total":12000000000.0,"area_m2":90.0,"ward":"Phường 13","district":"Quận Bình Thạnh","n_listings":1}},{"type":"Feature","geometry":{"type":"Point","coordinates":[106.5987079,10.8940165]},"properties":{"i":630,"property_type":"land","price_per_m2":25454545.0,"price_total":2800000000.0,"area_m2":110.0,"ward":"Xã Tân Hiệp","district":"Huyện Hóc Môn","n_listings":1}},{"type":"Feature","geometry":{"type":"Point","coordinates":[106.7041639,10.7301154]},"properties":{"i":631,"property_type":"apartment","price_per_m2":88942308.0,"price_total":9000000000.0,"area_m2":103.0,"ward":"Phường Tân Phong","district":"Quận 7","n_listings":5}},{"type":"Feature","geometry":{"type":"Point","coordinates":[106.7656152,10.8553718]},"properties":{"i":633,"property_type":"land","price_per_m2":73333333.0,"price_total":6600000000.0,"area_m2":90.0,"ward":"Phường Linh Xuân","district":"Thành phố Thủ Đức","n_listings":1}},{"type":"Feature","geometry":{"type":"Point","coordinates":[106.6532293,10.86467]},"properties":{"i":663,"property_type":"land","price_per_m2":8500000.0,"price_total":85000000000.0,"area_m2":10000.0,"ward":"Phường Thới An","district":"Quận 12","n_listings":1}},{"type":"Feature","geometry":{"type":"Point","coordinates":[106.6532293,10.86467]},"properties":{"i":678,"property_type":"land","price_per_m2":64800000.0,"price_total":6480000000.0,"area_m2":100.0,"ward":"Phường Thới An","district":"Quận 12","n_listings":1}},{"type":"Feature","geometry":{"type":"Point","coordinates":[106.6419807,10.7702835]},"properties":{"i":688,"property_type":"apartment","price_per_m2":75342466.0,"price_total":5500000000.0,"area_m2":73.0,"ward":"P.3","district":"Quận 11","n_listings":1}},{"type":"Feature","geometry":{"type":"Point","coordinates":[106.6617334,10.7608131]},"properties":{"i":693,"property_type":"apartment","price_per_m2":51923077.0,"price_total":2700000000.0,"area_m2":52.0,"ward":"Phường 7","district":"Quận 10","n_listings":1}},{"type":"Feature","geometry":{"type":"Point","coordinates":[106.7194453,10.7350015]},"properties":{"i":704,"property_type":"house","price_per_m2":153225806.0,"price_total":9500000000.0,"area_m2":62.0,"ward":"Phường Tân Phú","district":"Quận 7","n_listings":1}},{"type":"Feature","geometry":{"type":"Point","coordinates":[106.6501697,10.8706159]},"properties":{"i":712,"property_type":"house","price_per_m2":78750000.0,"price_total":25200000000.0,"area_m2":320.0,"ward":"Thới An","district":"Quận 12","n_listings":1}},{"type":"Feature","geometry":{"type":"Point","coordinates":[106.6894493,10.7663255]},"properties":{"i":719,"property_type":"land","price_per_m2":187500000.0,"price_total":10500000000.0,"area_m2":56.0,"ward":"Bến Thành","district":"Quận 1","n_listings":1}},{"type":"Feature","geometry":{"type":"Point","coordinates":[106.6950654,10.7618339]},"properties":{"i":723,"property_type":"apartment","price_per_m2":85294118.0,"price_total":5800000000.0,"area_m2":68.0,"ward":"Cô Giang","district":"Quận 1","n_listings":1}},{"type":"Feature","geometry":{"type":"Point","coordinates":[106.7694171,10.8820799]},"properties":{"i":730,"property_type":"land","price_per_m2":68382353.0,"price_total":4650000000.0,"area_m2":68.0,"ward":"Phường Linh Xuân","district":"Thành phố Thủ Đức","n_listings":1}},{"type":"Feature","geometry":{"type":"Point","coordinates":[106.6918144,10.7562578]},"properties":{"i":734,"property_type":"apartment","price_per_m2":95061728.0,"price_total":7700000000.0,"area_m2":81.0,"ward":"Phường 1","district":"Quận 4","n_listings":1}},{"type":"Feature","geometry":{"type":"Point","coordinates":[106.6419807,10.7702835]},"properties":{"i":741,"property_type":"house","price_per_m2":169642857.0,"price_total":1900000000.0,"area_m2":11.2,"ward":"Phường 5","district":"Quận 11","n_listings":1}},{"type":"Feature","geometry":{"type":"Point","coordinates":[106.7563536,10.8448291]},"properties":{"i":750,"property_type":"land","price_per_m2":49799197.0,"price_total":62000000000.0,"area_m2":1245.0,"ward":"Phường Trường Thọ","district":"Thành phố Thủ Đức","n_listings":1}},{"type":"Feature","geometry":{"type":"Point","coordinates":[106.7563536,10.8448291]},"properties":{"i":753,"property_type":"land","price_per_m2":66666667.0,"price_total":5600000000.0,"area_m2":84.0,"ward":"Phường Trường Thọ","district":"Thành phố Thủ Đức","n_listings":1}},{"type":"Feature","geometry":{"type":"Point","coordinates":[106.7376503,10.7162517]},"properties":{"i":757,"property_type":"land","price_per_m2":82142857.0,"price_total":11500000000.0,"area_m2":140.0,"ward":"Phường Phú Thuận","district":"Quận 7","n_listings":1}},{"type":"Feature","geometry":{"type":"Point","coordinates":[106.5987079,10.8940165]},"properties":{"i":759,"property_type":"land","price_per_m2":27500000.0,"price_total":3300000000.0,"area_m2":120.0,"ward":"Xã Tân Hiệp","district":"Huyện Hóc Môn","n_listings":1}},{"type":"Feature","geometry":{"type":"Point","coordinates":[106.6222679,10.8308138]},"properties":{"i":764,"property_type":"house","price_per_m2":103846154.0,"price_total":5400000000.0,"area_m2":52.0,"ward":"Phường Tân Hưng Thuận","district":"Quận 12","n_listings":1}},{"type":"Feature","geometry":{"type":"Point","coordinates":[106.6532293,10.86467]},"properties":{"i":767,"property_type":"land","price_per_m2":59130435.0,"price_total":6800000000.0,"area_m2":115.0,"ward":"Phường Thới An","district":"Quận 12","n_listings":1}},{"type":"Feature","geometry":{"type":"Point","coordinates":[106.8059743,10.8676273]},"properties":{"i":769,"property_type":"land","price_per_m2":179687500.0,"price_total":23000000000.0,"area_m2":128.0,"ward":"Phường An Phú","district":"Thành phố Thủ Đức","n_listings":1}},{"type":"Feature","geometry":{"type":"Point","coordinates":[106.7210199,10.8008118]},"properties":{"i":772,"property_type":"land","price_per_m2":76000000.0,"price_total":19000000000.0,"area_m2":250.0,"ward":"Phường 17","district":"Quận Bình Thạnh","n_listings":1}},{"type":"Feature","geometry":{"type":"Point","coordinates":[106.7234415,10.8470439]},"properties":{"i":781,"property_type":"land","price_per_m2":86363636.0,"price_total":9500000000.0,"area_m2":110.0,"ward":"Phường Hiệp Bình Phước","district":"Thành phố Thủ Đức","n_listings":1}},{"type":"Feature","geometry":{"type":"Point","coordinates":[106.7591933,10.8454774]},"properties":{"i":850,"property_type":"land","price_per_m2":74285714.0,"price_total":5200000000.0,"area_m2":70.0,"ward":"Phường Trường Thọ","district":"Thành phố Thủ Đức","n_listings":1}},{"type":"Feature","geometry":{"type":"Point","coordinates":[106.7227082,10.7999587]},"properties":{"i":866,"property_type":"land","price_per_m2":113240541.0,"price_total":41899000000.0,"area_m2":370.0,"ward":"Phường 25","district":"Quận Bình Thạnh","n_listings":1}},{"type":"Feature","geometry":{"type":"Point","coordinates":[106.7591933,10.8454774]},"properties":{"i":869,"property_type":"land","price_per_m2":44036697.0,"price_total":24000000000.0,"area_m2":545.0,"ward":"Phường Trường Thọ","district":"Thành phố Thủ Đức","n_listings":1}},{"type":"Feature","geometry":{"type":"Point","coordinates":[106.8342883,10.8393841]},"properties":{"i":877,"property_type":"apartment","price_per_m2":49152542.0,"price_total":2900000000.0,"area_m2":59.0,"ward":"Long Bình","district":"Thành phố Thủ Đức","n_listings":1}},{"type":"Feature","geometry":{"type":"Point","coordinates":[106.6501697,10.8706159]},"properties":{"i":901,"property_type":"land","price_per_m2":67241379.0,"price_total":3900000000.0,"area_m2":58.0,"ward":"Thới An","district":"Quận 12","n_listings":1}},{"type":"Feature","geometry":{"type":"Point","coordinates":[106.8235276,10.8412073]},"properties":{"i":937,"property_type":"land","price_per_m2":31632653.0,"price_total":6200000000.0,"area_m2":196.0,"ward":"Phường Long Thạnh Mỹ","district":"Thành phố Thủ Đức","n_listings":1}},{"type":"Feature","geometry":{"type":"Point","coordinates":[106.7350002,10.8036143]},"properties":{"i":966,"property_type":"land","price_per_m2":304414003.0,"price_total":100000000000.0,"area_m2":328.5,"ward":"Phường Thảo Điền","district":"Thành phố Thủ Đức","n_listings":1}},{"type":"Feature","geometry":{"type":"Point","coordinates":[106.755752,10.7849646]},"properties":{"i":973,"property_type":"land","price_per_m2":92307692.0,"price_total":120000000000.0,"area_m2":1300.0,"ward":"Phường Bình Trưng Tây","district":"Thành phố Thủ Đức","n_listings":1}},{"type":"Feature","geometry":{"type":"Point","coordinates":[106.6950654,10.7618339]},"properties":{"i":977,"property_type":"apartment","price_per_m2":101176471.0,"price_total":8600000000.0,"area_m2":85.0,"ward":"Phường Cầu Ông Lãnh","district":"Quận 1","n_listings":1}},{"type":"Feature","geometry":{"type":"Point","coordinates":[106.7478779,10.8599749]},"properties":{"i":996,"property_type":"land","price_per_m2":68181818.0,"price_total":4500000000.0,"area_m2":66.0,"ward":"Tam Bình","district":"Thành phố Thủ Đức","n_listings":1}}]}