{"type":"FeatureCollection","features":[{"type":"Feature","geometry":{"type":"Point","coordinates":[106.5918016,10.7510379]},"properties":{"area_label":"Tân Tạo, Quận Bình Tân","property_type":"land","median_price_per_m2":68000000.0,"price_per_m2_q25":68000000.0,"price_per_m2_q75":68000000.0,"n_properties":2,"geo_precision_tier":"WARD_APPROXIMATE"}},{"type":"Feature","geometry":{"type":"Point","coordinates":[106.6953508,10.7957801]},"properties":{"area_label":"Phường 24, Quận Bình Thạnh","property_type":"house","median_price_per_m2":178750000.0,"price_per_m2_q25":178750000.0,"price_per_m2_q75":178750000.0,"n_properties":1,"geo_precision_tier":"WARD_APPROXIMATE"}},{"type":"Feature","geometry":{"type":"Point","coordinates":[106.69135,10.7766343]},"properties":{"area_label":"Phường 12, Quận 3","property_type":"house","median_price_per_m2":320412112.9326048,"price_per_m2_q25":300546448.0874317,"price_per_m2_q75":340277777.7777778,"n_properties":2,"geo_precision_tier":"WARD_APPROXIMATE"}},{"type":"Feature","geometry":{"type":"Point","coordinates":[106.6776414,10.8154508]},"properties":{"area_label":"Phường 3, Quận Gò Vấp","property_type":"apartment","median_price_per_m2":40200000.0,"price_per_m2_q25":40200000.0,"price_per_m2_q75":40200000.0,"n_properties":1,"geo_precision_tier":"WARD_APPROXIMATE"}},{"type":"Feature","geometry":{"type":"Point","coordinates":[106.7201093,10.7897149]},"properties":{"area_label":"Phường 25, Quận Bình Thạnh","property_type":"apartment","median_price_per_m2":70886075.94936709,"price_per_m2_q25":70129870.12987013,"price_per_m2_q75":73333333.33333333,"n_properties":3,"geo_precision_tier":"WARD_APPROXIMATE"}},{"type":"Feature","geometry":{"type":"Point","coordinates":[106.5918016,10.7510379]},"properties":{"area_label":"Phường Tân Tạo, Quận Bình Tân","property_type":"apartment","median_price_per_m2":20942408.376963347,"price_per_m2_q25":20418848.167539265,"price_per_m2_q75":22123893.805309735,"n_properties":4,"geo_precision_tier":"WARD_APPROXIMATE"}},{"type":"Feature","geometry":{"type":"Point","coordinates":[106.6221599,10.7824462]},"properties":{"area_label":"Phú Thọ Hòa, Quận Tân Phú","property_type":"apartment","median_price_per_m2":40783086.35666837,"price_per_m2_q25":40776699.02912621,"price_per_m2_q75":40789473.684210524,"n_properties":2,"geo_precision_tier":"WARD_APPROXIMATE"}},{"type":"Feature","geometry":{"type":"Point","coordinates":[106.7066125,10.8264409]},"properties":{"area_label":"Phường 22, Quận Bình Thạnh","property_type":"apartment","median_price_per_m2":125284738.04100229,"price_per_m2_q25":112500000.0,"price_per_m2_q75":156363636.36363637,"n_properties":11,"geo_precision_tier":"WARD_APPROXIMATE"}},{"type":"Feature","geometry":{"type":"Point","coordinates":[106.7133893,10.8311054]},"properties":{"area_label":"Phường Hiệp Bình Chánh, Thành phố Thủ Đức","property_type":"land","median_price_per_m2":88405797.10144928,"price_per_m2_q25":87096774.19354838,"price_per_m2_q75":104166666.66666667,"n_properties":5,"geo_precision_tier":"WARD_APPROXIMATE"}},{"type":"Feature","geometry":{"type":"Point","coordinates":[106.6264589,10.8104797]},"properties":{"area_label":"Phú Trung, Quận Tân Phú","property_type":"apartment","median_price_per_m2":22857142.85714286,"price_per_m2_q25":22857142.85714286,"price_per_m2_q75":22857142.85714286,"n_properties":1,"geo_precision_tier":"WARD_APPROXIMATE"}},{"type":"Feature","geometry":{"type":"Point","coordinates":[106.6649389,10.7416082]},"properties":{"area_label":"phường 2, Quận 8","property_type":"house","median_price_per_m2":344117647.0588235,"price_per_m2_q25":344117647.0588235,"price_per_m2_q75":344117647.0588235,"n_properties":1,"geo_precision_tier":"WARD_APPROXIMATE"}},{"type":"Feature","geometry":{"type":"Point","coordinates":[106.6984862,10.780845]},"properties":{"area_label":"P. Bến Thành, Quận 1","property_type":"other","median_price_per_m2":4225000.0,"price_per_m2_q25":4225000.0,"price_per_m2_q75":4225000.0,"n_properties":1,"geo_precision_tier":"WARD_APPROXIMATE"}},{"type":"Feature","geometry":{"type":"Point","coordinates":[106.6674006,10.8125589]},"properties":{"area_label":"Phường 2, Quận Tân Bình","property_type":"apartment","median_price_per_m2":77142857.14285715,"price_per_m2_q25":75147368.42105263,"price_per_m2_q75":78000000.0,"n_properties":5,"geo_precision_tier":"WARD_APPROXIMATE"}},{"type":"Feature","geometry":{"type":"Point","coordinates":[106.6589504,10.7472059]},"properties":{"area_label":"Phường 15, Quận 8","property_type":"house","median_price_per_m2":94444444.44444445,"price_per_m2_q25":94444444.44444445,"price_per_m2_q75":94444444.44444445,"n_properties":1,"geo_precision_tier":"WARD_APPROXIMATE"}},{"type":"Feature","geometry":{"type":"Point","coordinates":[106.6471276,10.773806]},"properties":{"area_label":"Phường 5, Quận Bình Thạnh","property_type":"land","median_price_per_m2":63116883.116883114,"price_per_m2_q25":63116883.116883114,"price_per_m2_q75":63116883.116883114,"n_properties":1,"geo_precision_tier":"WARD_APPROXIMATE"}},{"type":"Feature","geometry":{"type":"Point","coordinates":[106.7584516,10.7829067]},"properties":{"area_label":"Phường Thạnh Mỹ Lợi, Thành phố Thủ Đức","property_type":"apartment","median_price_per_m2":123488194.97334349,"price_per_m2_q25":98461538.46153846,"price_per_m2_q75":148514851.48514852,"n_properties":2,"geo_precision_tier":"WARD_APPROXIMATE"}},{"type":"Feature","geometry":{"type":"Point","coordinates":[106.6607778,10.7883754]},"properties":{"area_label":"Phường 10, Quận Tân Bình","property_type":"apartment","median_price_per_m2":50857142.85714286,"price_per_m2_q25":50000000.0,"price_per_m2_q75":56000000.0,"n_properties":10,"geo_precision_tier":"WARD_APPROXIMATE"}},{"type":"Feature","geometry":{"type":"Point","coordinates":[106.70160285,10.7309217]},"properties":{"area_label":"Phường Tân Phong, Quận 7","property_type":"apartment","median_price_per_m2":97972972.97297297,"price_per_m2_q25":97972972.97297297,"price_per_m2_q75":97972972.97297297,"n_properties":1,"geo_precision_tier":"WARD_APPROXIMATE"}},{"type":"Feature","geometry":{"type":"Point","coordinates":[106.7721272,10.7904061]},"properties":{"area_label":"Bình Trưng Đông, Thành phố Thủ Đức","property_type":"land","median_price_per_m2":98591.54929577465,"price_per_m2_q25":98591.54929577465,"price_per_m2_q75":98591.54929577465,"n_properties":1,"geo_precision_tier":"WARD_APPROXIMATE"}},{"type":"Feature","geometry":{"type":"Point","coordinates":[106.7098108,10.7426478]},"properties":{"area_label":"Phường Tân Quy, Quận 7","property_type":"house","median_price_per_m2":211968920.7650273,"price_per_m2_q25":164375000.0,"price_per_m2_q75":259562841.53005463,"n_properties":2,"geo_precision_tier":"WARD_APPROXIMATE"}},{"type":"Feature","geometry":{"type":"Point","coordinates":[106.5943997,10.8349481]},"properties":{"area_label":"Xã Bà Điểm, Huyện Hóc Môn","property_type":"land","median_price_per_m2":9538461.538461538,"price_per_m2_q25":9538461.538461538,"price_per_m2_q75":9538461.538461538,"n_properties":1,"geo_precision_tier":"WARD_APPROXIMATE"}},{"type":"Feature","geometry":{"type":"Point","coordinates":[106.7201093,10.7897149]},"properties":{"area_label":"Phường 25, Quận Bình Thạnh","property_type":"house","median_price_per_m2":166666666.66666666,"price_per_m2_q25":128566666.66666667,"price_per_m2_q75":220000000.0,"n_properties":3,"geo_precision_tier":"WARD_APPROXIMATE"}},{"type":"Feature","geometry":{"type":"Point","coordinates":[106.7584516,10.7829067]},"properties":{"area_label":"Phường Thạnh Mỹ Lợi, Thành phố Thủ Đức","property_type":"land","median_price_per_m2":170000000.0,"price_per_m2_q25":160000000.0,"price_per_m2_q75":207511111.1111111,"n_properties":9,"geo_precision_tier":"WARD_APPROXIMATE"}},{"type":"Feature","geometry":{"type":"Point","coordinates":[106.7852347,10.797528]},"properties":{"area_label":"Phú Hữu, Thành phố Thủ Đức","property_type":"land","median_price_per_m2":40054347.82608695,"price_per_m2_q25":36363636.36363637,"price_per_m2_q75":89830508.47457626,"n_properties":3,"geo_precision_tier":"WARD_APPROXIMATE"}},{"type":"Feature","geometry":{"type":"Point","coordinates":[106.6516251,10.75953]},"properties":{"area_label":"Phường 12, Quận 11","property_type":"house","median_price_per_m2":190243902.4390244,"price_per_m2_q25":190243902.4390244,"price_per_m2_q75":190243902.4390244,"n_properties":1,"geo_precision_tier":"WARD_APPROXIMATE"}},{"type":"Feature","geometry":{"type":"Point","coordinates":[106.6840524,10.8025151]},"properties":{"area_label":"Phường 2, Quận Phú Nhuận","property_type":"land","median_price_per_m2":339285714.28571427,"price_per_m2_q25":107724425.88726513,"price_per_m2_q75":343750000.0,"n_properties":3,"geo_precision_tier":"WARD_APPROXIMATE"}},{"type":"Feature","geometry":{"type":"Point","coordinates":[106.6832206,10.7933512]},"properties":{"area_label":"Phường 1, Quận Phú Nhuận","property_type":"apartment","median_price_per_m2":40222222.222222224,"price_per_m2_q25":40000000.0,"price_per_m2_q75":71666666.66666667,"n_properties":3,"geo_precision_tier":"WARD_APPROXIMATE"}},{"type":"Feature","geometry":{"type":"Point","coordinates":[106.7472609,10.8043499]},"properties":{"area_label":"Phường An Khánh, Thành phố Thủ Đức","property_type":"apartment","median_price_per_m2":67861715.7490397,"price_per_m2_q25":67861715.7490397,"price_per_m2_q75":67861715.7490397,"n_properties":1,"geo_precision_tier":"WARD_APPROXIMATE"}},{"type":"Feature","geometry":{"type":"Point","coordinates":[106.6674006,10.8125589]},"properties":{"area_label":"P.2, Quận Tân Bình","property_type":"apartment","median_price_per_m2":72602739.7260274,"price_per_m2_q25":72602739.7260274,"price_per_m2_q75":72602739.7260274,"n_properties":1,"geo_precision_tier":"WARD_APPROXIMATE"}},{"type":"Feature","geometry":{"type":"Point","coordinates":[106.658993,10.835817]},"properties":{"area_label":"Phường 4, Quận 4","property_type":"house","median_price_per_m2":316250000.0,"price_per_m2_q25":310000000.0,"price_per_m2_q75":322500000.0,"n_properties":2,"geo_precision_tier":"WARD_APPROXIMATE"}},{"type":"Feature","geometry":{"type":"Point","coordinates":[106.6912169,10.8545403]},"properties":{"area_label":"Phường An Phú, Thành phố Thủ Đức","property_type":"land","median_price_per_m2":250000000.0,"price_per_m2_q25":240000000.0,"price_per_m2_q75":291666666.6666667,"n_properties":3,"geo_precision_tier":"WARD_APPROXIMATE"}},{"type":"Feature","geometry":{"type":"Point","coordinates":[106.6840524,10.8025151]},"properties":{"area_label":"Phường 2, Quận 10","property_type":"house","median_price_per_m2":247191011.23595506,"price_per_m2_q25":247191011.23595506,"price_per_m2_q75":247191011.23595506,"n_properties":1,"geo_precision_tier":"WARD_APPROXIMATE"}},{"type":"Feature","geometry":{"type":"Point","coordinates":[106.7060482,10.8590193]},"properties":{"area_label":"An Khánh, Thành phố Thủ Đức","property_type":"land","median_price_per_m2":177083333.33333334,"price_per_m2_q25":177083333.33333334,"price_per_m2_q75":177083333.33333334,"n_properties":1,"geo_precision_tier":"WARD_APPROXIMATE"}},{"type":"Feature","geometry":{"type":"Point","coordinates":[106.6501697,10.8706159]},"properties":{"area_label":"Thới An, Quận 12","property_type":"land","median_price_per_m2":64285714.28571428,"price_per_m2_q25":64285714.28571428,"price_per_m2_q75":64285714.28571428,"n_properties":1,"geo_precision_tier":"WARD_APPROXIMATE"}},{"type":"Feature","geometry":{"type":"Point","coordinates":[106.7292434,10.8819382]},"properties":{"area_label":"Phường Bình Chiểu, Thành phố Thủ Đức","property_type":"apartment","median_price_per_m2":41666666.666666664,"price_per_m2_q25":41666666.666666664,"price_per_m2_q75":41666666.666666664,"n_properties":1,"geo_precision_tier":"WARD_APPROXIMATE"}},{"type":"Feature","geometry":{"type":"Point","coordinates":[106.7724465,10.7936359]},"properties":{"area_label":"An Phú, Thành phố Thủ Đức","property_type":"land","median_price_per_m2":199797979.7979798,"price_per_m2_q25":190000000.0,"price_per_m2_q75":209595959.5959596,"n_properties":2,"geo_precision_tier":"WARD_APPROXIMATE"}},{"type":"Feature","geometry":{"type":"Point","coordinates":[106.8164994,10.8464238]},"properties":{"area_label":"Phường Long Thạnh Mỹ, Thành phố Thủ Đức","property_type":"land","median_price_per_m2":59431972.789115645,"price_per_m2_q25":59000000.0,"price_per_m2_q75":59863945.57823129,"n_properties":2,"geo_precision_tier":"WARD_APPROXIMATE"}},{"type":"Feature","geometry":{"type":"Point","coordinates":[106.7460498,10.8040647]},"properties":{"area_label":"Phường Thảo Điền, Thành phố Thủ Đức","property_type":"house","median_price_per_m2":298333333.3333333,"price_per_m2_q25":194438888.8888889,"price_per_m2_q75":378676470.5882353,"n_properties":7,"geo_precision_tier":"WARD_APPROXIMATE"}},{"type":"Feature","geometry":{"type":"Point","coordinates":[106.7376503,10.7162517]},"properties":{"area_label":"Tân Phú, Quận 7","property_type":"apartment","median_price_per_m2":100737930.54771316,"price_per_m2_q25":98051948.05194806,"price_per_m2_q75":150000000.0,"n_properties":4,"geo_precision_tier":"WARD_APPROXIMATE"}},{"type":"Feature","geometry":{"type":"Point","coordinates":[106.7460498,10.8040647]},"properties":{"area_label":"Phường Thảo Điền, Thành phố Thủ Đức","property_type":"land","median_price_per_m2":193125000.0,"price_per_m2_q25":154285714.2857143,"price_per_m2_q75":341278439.86998916,"n_properties":7,"geo_precision_tier":"WARD_APPROXIMATE"}},{"type":"Feature","geometry":{"type":"Point","coordinates":[106.6544302,10.7730701]},"properties":{"area_label":"Phường Hòa Thạnh, Quận Tân Phú","property_type":"apartment","median_price_per_m2":51000000.0,"price_per_m2_q25":44705882.35294118,"price_per_m2_q75":54861111.11111111,"n_properties":11,"geo_precision_tier":"WARD_APPROXIMATE"}},{"type":"Feature","geometry":{"type":"Point","coordinates":[106.6634764,10.8079428]},"properties":{"area_label":"Phường 8, Quận Tân Bình","property_type":"land","median_price_per_m2":120000000.0,"price_per_m2_q25":120000000.0,"price_per_m2_q75":120000000.0,"n_properties":1,"geo_precision_tier":"WARD_APPROXIMATE"}},{"type":"Feature","geometry":{"type":"Point","coordinates":[106.72030795,10.760142349999999]},"properties":{"area_label":"Phường 1, Quận 4","property_type":"apartment","median_price_per_m2":27039473.684210528,"price_per_m2_q25":27039473.684210528,"price_per_m2_q75":27039473.684210528,"n_properties":1,"geo_precision_tier":"WARD_APPROXIMATE"}},{"type":"Feature","geometry":{"type":"Point","coordinates":[106.7346706,10.7323681]},"properties":{"area_label":"Phú Thuận, Quận 7","property_type":"apartment","median_price_per_m2":61574349.811395675,"price_per_m2_q25":50684931.50684932,"price_per_m2_q75":72463768.11594203,"n_properties":2,"geo_precision_tier":"WARD_APPROXIMATE"}},{"type":"Feature","geometry":{"type":"Point","coordinates":[106.6501697,10.8706159]},"properties":{"area_label":"Phường Hiệp Thành, Quận 12","property_type":"house","median_price_per_m2":91666666.66666667,"price_per_m2_q25":79464285.71428572,"price_per_m2_q75":109072727.27272727,"n_properties":3,"geo_precision_tier":"WARD_APPROXIMATE"}},{"type":"Feature","geometry":{"type":"Point","coordinates":[106.6419595,10.7803454]},"properties":{"area_label":"Phường Tân Phú, Thành phố Thủ Đức","property_type":"house","median_price_per_m2":46124031.00775194,"price_per_m2_q25":46124031.00775194,"price_per_m2_q75":46124031.00775194,"n_properties":1,"geo_precision_tier":"WARD_APPROXIMATE"}},{"type":"Feature","geometry":{"type":"Point","coordinates":[106.6544302,10.7730701]},"properties":{"area_label":"Phường 15, Quận 11","property_type":"apartment","median_price_per_m2":55000000.0,"price_per_m2_q25":53333333.333333336,"price_per_m2_q75":58000000.0,"n_properties":7,"geo_precision_tier":"WARD_APPROXIMATE"}},{"type":"Feature","geometry":{"type":"Point","coordinates":[106.6638135,10.8060049]},"properties":{"area_label":"P.9, Quận Tân Bình","property_type":"apartment","median_price_per_m2":45833333.333333336,"price_per_m2_q25":45833333.333333336,"price_per_m2_q75":45833333.333333336,"n_properties":1,"geo_precision_tier":"WARD_APPROXIMATE"}},{"type":"Feature","geometry":{"type":"Point","coordinates":[106.6438364,10.7336671]},"properties":{"area_label":"Bình An, Thành phố Thủ Đức","property_type":"land","median_price_per_m2":153058333.3333333,"price_per_m2_q25":144678723.40425533,"price_per_m2_q75":169565217.39130434,"n_properties":6,"geo_precision_tier":"WARD_APPROXIMATE"}},{"type":"Feature","geometry":{"type":"Point","coordinates":[106.6662335,10.7417794]},"properties":{"area_label":"Phường 7, Quận 8","property_type":"apartment","median_price_per_m2":37500000.0,"price_per_m2_q25":33870967.741935484,"price_per_m2_q75":37974683.5443038,"n_properties":3,"geo_precision_tier":"WARD_APPROXIMATE"}},{"type":"Feature","geometry":{"type":"Point","coordinates":[106.7234415,10.8470439]},"properties":{"area_label":"Phường Hiệp Bình Phước, Thành phố Thủ Đức","property_type":"land","median_price_per_m2":81818181.81818181,"price_per_m2_q25":81818181.81818181,"price_per_m2_q75":81818181.81818181,"n_properties":1,"geo_precision_tier":"WARD_APPROXIMATE"}},{"type":"Feature","geometry":{"type":"Point","coordinates":[106.6408619,10.7691922]},"properties":{"area_label":"Phường 12, Quận Bình Thạnh","property_type":"apartment","median_price_per_m2":52816901.40845071,"price_per_m2_q25":46153846.15384615,"price_per_m2_q75":59230769.23076923,"n_properties":5,"geo_precision_tier":"WARD_APPROXIMATE"}},{"type":"Feature","geometry":{"type":"Point","coordinates":[106.6468455,10.8044247]},"properties":{"area_label":"Phường 13, Quận Tân Bình","property_type":"apartment","median_price_per_m2":60491404.511540644,"price_per_m2_q25":58461538.461538464,"price_per_m2_q75":85185185.18518518,"n_properties":4,"geo_precision_tier":"WARD_APPROXIMATE"}},{"type":"Feature","geometry":{"type":"Point","coordinates":[106.6840524,10.8025151]},"properties":{"area_label":"Phường 10, Quận Phú Nhuận","property_type":"house","median_price_per_m2":123796423.65887208,"price_per_m2_q25":115698729.58257712,"price_per_m2_q75":134259259.25925925,"n_properties":3,"geo_precision_tier":"WARD_APPROXIMATE"}},{"type":"Feature","geometry":{"type":"Point","coordinates":[106.6363015,10.7681426]},"properties":{"area_label":"Phường 3, Quận 11","property_type":"apartment","median_price_per_m2":73076923.07692307,"price_per_m2_q25":73076923.07692307,"price_per_m2_q75":73076923.07692307,"n_properties":1,"geo_precision_tier":"WARD_APPROXIMATE"}},{"type":"Feature","geometry":{"type":"Point","coordinates":[106.6501697,10.8706159]},"properties":{"area_label":"P. Thới An, Quận 12","property_type":"land","median_price_per_m2":43981481.48148148,"price_per_m2_q25":43981481.48148148,"price_per_m2_q75":43981481.48148148,"n_properties":1,"geo_precision_tier":"WARD_APPROXIMATE"}},{"type":"Feature","geometry":{"type":"Point","coordinates":[106.6950654,10.7618339]},"properties":{"area_label":"Phường Cô Giang, Quận 1","property_type":"apartment","median_price_per_m2":71084337.34939758,"price_per_m2_q25":69767441.86046511,"price_per_m2_q75":108928571.42857143,"n_properties":3,"geo_precision_tier":"WARD_APPROXIMATE"}},{"type":"Feature","geometry":{"type":"Point","coordinates":[106.7209052,10.7989297]},"properties":{"area_label":"Phường 15, Quận Tân Bình","property_type":"apartment","median_price_per_m2":46739130.43478261,"price_per_m2_q25":40332722.83272283,"price_per_m2_q75":54545454.54545455,"n_properties":3,"geo_precision_tier":"WARD_APPROXIMATE"}},{"type":"Feature","geometry":{"type":"Point","coordinates":[106.7348612,10.7141195]},"properties":{"area_label":"Phường Phú Mỹ, Quận 7","property_type":"apartment","median_price_per_m2":60000000.0,"price_per_m2_q25":60000000.0,"price_per_m2_q75":60000000.0,"n_properties":1,"geo_precision_tier":"WARD_APPROXIMATE"}},{"type":"Feature","geometry":{"type":"Point","coordinates":[106.6912637,10.7766983]},"properties":{"area_label":"Phường 14, Quận 3","property_type":"house","median_price_per_m2":516666666.6666667,"price_per_m2_q25":516666666.6666667,"price_per_m2_q75":516666666.6666667,"n_properties":1,"geo_precision_tier":"WARD_APPROXIMATE"}},{"type":"Feature","geometry":{"type":"Point","coordinates":[106.63285049999999,10.79994345]},"properties":{"area_label":"Tân Thành, Quận Tân Phú","property_type":"apartment","median_price_per_m2":43548387.09677419,"price_per_m2_q25":43548387.09677419,"price_per_m2_q75":43548387.09677419,"n_properties":1,"geo_precision_tier":"WARD_APPROXIMATE"}},{"type":"Feature","geometry":{"type":"Point","coordinates":[106.6544302,10.7730701]},"properties":{"area_label":"Phường 15, Quận 11","property_type":"house","median_price_per_m2":276785714.28571427,"price_per_m2_q25":276785714.28571427,"price_per_m2_q75":276785714.28571427,"n_properties":1,"geo_precision_tier":"WARD_APPROXIMATE"}},{"type":"Feature","geometry":{"type":"Point","coordinates":[106.6598834,10.771122]},"properties":{"area_label":"phường 12, Quận 10","property_type":"apartment","median_price_per_m2":145000000.0,"price_per_m2_q25":145000000.0,"price_per_m2_q75":145000000.0,"n_properties":1,"geo_precision_tier":"WARD_APPROXIMATE"}},{"type":"Feature","geometry":{"type":"Point","coordinates":[106.7460498,10.8040647]},"properties":{"area_label":"Phường Thảo Điền, Thành phố Thủ Đức","property_type":"apartment","median_price_per_m2":46852402.998236336,"price_per_m2_q25":25803571.42857143,"price_per_m2_q75":283333333.3333333,"n_properties":4,"geo_precision_tier":"WARD_APPROXIMATE"}},{"type":"Feature","geometry":{"type":"Point","coordinates":[106.6501697,10.8706159]},"properties":{"area_label":"Phường Tân Thới Hiệp, Quận 12","property_type":"land","median_price_per_m2":59500000.0,"price_per_m2_q25":59500000.0,"price_per_m2_q75":59500000.0,"n_properties":1,"geo_precision_tier":"WARD_APPROXIMATE"}},{"type":"Feature","geometry":{"type":"Point","coordinates":[106.7267864,10.7310064]},"properties":{"area_label":"Phường Tân Phú, Quận 7","property_type":"apartment","median_price_per_m2":104058441.55844155,"price_per_m2_q25":97402597.4025974,"price_per_m2_q75":123636363.63636364,"n_properties":4,"geo_precision_tier":"WARD_APPROXIMATE"}},{"type":"Feature","geometry":{"type":"Point","coordinates":[106.6247797,10.8252269]},"properties":{"area_label":"Tân Thới Nhất, Quận 12","property_type":"house","median_price_per_m2":92557803.46820809,"price_per_m2_q25":60115606.93641619,"price_per_m2_q75":136000000.0,"n_properties":4,"geo_precision_tier":"WARD_APPROXIMATE"}},{"type":"Feature","geometry":{"type":"Point","coordinates":[106.6238898,10.8131991]},"properties":{"area_label":"Phường Tây Thạnh, Quận Tân Phú","property_type":"apartment","median_price_per_m2":35014619.883040935,"price_per_m2_q25":30555555.555555556,"price_per_m2_q75":39473684.21052632,"n_properties":2,"geo_precision_tier":"WARD_APPROXIMATE"}},{"type":"Feature","geometry":{"type":"Point","coordinates":[106.7054859,10.7613705]},"properties":{"area_label":"P Vĩnh Hội, Quận 4","property_type":"apartment","median_price_per_m2":25347222.222222224,"price_per_m2_q25":25347222.222222224,"price_per_m2_q75":25347222.222222224,"n_properties":1,"geo_precision_tier":"WARD_APPROXIMATE"}},{"type":"Feature","geometry":{"type":"Point","coordinates":[106.653308,10.7464608]},"properties":{"area_label":"Phường 27, Quận Bình Thạnh","property_type":"land","median_price_per_m2":156521450.55710885,"price_per_m2_q25":140724946.69509596,"price_per_m2_q75":172317954.41912174,"n_properties":2,"geo_precision_tier":"WARD_APPROXIMATE"}},{"type":"Feature","geometry":{"type":"Point","coordinates":[106.6363015,10.7681426]},"properties":{"area_label":"Phường 3, Quận Tân Bình","property_type":"other","median_price_per_m2":40000000.0,"price_per_m2_q25":40000000.0,"price_per_m2_q75":40000000.0,"n_properties":1,"geo_precision_tier":"WARD_APPROXIMATE"}},{"type":"Feature","geometry":{"type":"Point","coordinates":[106.6605145,10.7883675]},"properties":{"area_label":"P.26, Quận Bình Thạnh","property_type":"house","median_price_per_m2":90175953.07917888,"price_per_m2_q25":90175953.07917888,"price_per_m2_q75":90175953.07917888,"n_properties":1,"geo_precision_tier":"WARD_APPROXIMATE"}},{"type":"Feature","geometry":{"type":"Point","coordinates":[106.5918016,10.7510379]},"properties":{"area_label":"Tân Tạo A, Quận Bình Tân","property_type":"apartment","median_price_per_m2":39682539.68253968,"price_per_m2_q25":39682539.68253968,"price_per_m2_q75":39682539.68253968,"n_properties":1,"geo_precision_tier":"WARD_APPROXIMATE"}},{"type":"Feature","geometry":{"type":"Point","coordinates":[106.6776414,10.8154508]},"properties":{"area_label":"Phường 3, Quận Gò Vấp","property_type":"house","median_price_per_m2":132456140.3508772,"price_per_m2_q25":132456140.3508772,"price_per_m2_q75":132456140.3508772,"n_properties":1,"geo_precision_tier":"WARD_APPROXIMATE"}},{"type":"Feature","geometry":{"type":"Point","coordinates":[106.7041639,10.7301154]},"properties":{"area_label":"Tân Phong, Quận 7","property_type":"house","median_price_per_m2":96327981.65137614,"price_per_m2_q25":96327981.65137614,"price_per_m2_q75":96327981.65137614,"n_properties":1,"geo_precision_tier":"WARD_APPROXIMATE"}},{"type":"Feature","geometry":{"type":"Point","coordinates":[106.6605145,10.7883675]},"properties":{"area_label":"Phường 26, Quận Bình Thạnh","property_type":"apartment","median_price_per_m2":71296952.51594613,"price_per_m2_q25":60240963.855421685,"price_per_m2_q75":82352941.1764706,"n_properties":2,"geo_precision_tier":"WARD_APPROXIMATE"}},{"type":"Feature","geometry":{"type":"Point","coordinates":[106.6751083,10.7667031]},"properties":{"area_label":"Phường 5, Quận 10","property_type":"house","median_price_per_m2":356666666.6666667,"price_per_m2_q25":356666666.6666667,"price_per_m2_q75":356666666.6666667,"n_properties":1,"geo_precision_tier":"WARD_APPROXIMATE"}},{"type":"Feature","geometry":{"type":"Point","coordinates":[106.6589555,10.8370645]},"properties":{"area_label":"Hạnh Thông, Quận Gò Vấp","property_type":"apartment","median_price_per_m2":59375000.0,"price_per_m2_q25":59375000.0,"price_per_m2_q75":59375000.0,"n_properties":1,"geo_precision_tier":"WARD_APPROXIMATE"}},{"type":"Feature","geometry":{"type":"Point","coordinates":[106.723798,10.878552]},"properties":{"area_label":"Bình Chiểu, Thành phố Thủ Đức","property_type":"land","median_price_per_m2":61960227.27272727,"price_per_m2_q25":59375000.0,"price_per_m2_q75":64545454.54545455,"n_properties":2,"geo_precision_tier":"WARD_APPROXIMATE"}},{"type":"Feature","geometry":{"type":"Point","coordinates":[106.625859,10.8430984]},"properties":{"area_label":"Đông Hưng Thuận, Quận 12","property_type":"land","median_price_per_m2":66529304.02930403,"price_per_m2_q25":58000000.0,"price_per_m2_q75":94890510.94890511,"n_properties":6,"geo_precision_tier":"WARD_APPROXIMATE"}},{"type":"Feature","geometry":{"type":"Point","coordinates":[106.7209052,10.7989297]},"properties":{"area_label":"P.15, Quận Tân Bình","property_type":"apartment","median_price_per_m2":51538461.538461536,"price_per_m2_q25":50000000.0,"price_per_m2_q75":53076923.07692307,"n_properties":2,"geo_precision_tier":"WARD_APPROXIMATE"}},{"type":"Feature","geometry":{"type":"Point","coordinates":[106.7201093,10.7897149]},"properties":{"area_label":"Phường 25, Quận Bình Thạnh","property_type":"land","median_price_per_m2":141666666.66666666,"price_per_m2_q25":141666666.66666666,"price_per_m2_q75":141666666.66666666,"n_properties":1,"geo_precision_tier":"WARD_APPROXIMATE"}},{"type":"Feature","geometry":{"type":"Point","coordinates":[106.6634764,10.8079428]},"properties":{"area_label":"P.8, Quận Tân Bình","property_type":"house","median_price_per_m2":133333333.33333333,"price_per_m2_q25":133333333.33333333,"price_per_m2_q75":133333333.33333333,"n_properties":1,"geo_precision_tier":"WARD_APPROXIMATE"}},{"type":"Feature","geometry":{"type":"Point","coordinates":[106.7061889,10.8263833]},"properties":{"area_label":"Phường 13, Quận Bình Thạnh","property_type":"apartment","median_price_per_m2":55809523.809523806,"price_per_m2_q25":48285714.28571428,"price_per_m2_q75":63333333.333333336,"n_properties":2,"geo_precision_tier":"WARD_APPROXIMATE"}},{"type":"Feature","geometry":{"type":"Point","coordinates":[106.7003471,10.7705455]},"properties":{"area_label":"Phường 28, Quận Bình Thạnh","property_type":"land","median_price_per_m2":201923076.92307693,"price_per_m2_q25":201923076.92307693,"price_per_m2_q75":201923076.92307693,"n_properties":1,"geo_precision_tier":"WARD_APPROXIMATE"}},{"type":"Feature","geometry":{"type":"Point","coordinates":[106.7234415,10.8470439]},"properties":{"area_label":"Phường Hiệp Bình Phước, Thành phố Thủ Đức","property_type":"apartment","median_price_per_m2":44062500.0,"price_per_m2_q25":44062500.0,"price_per_m2_q75":44062500.0,"n_properties":1,"geo_precision_tier":"WARD_APPROXIMATE"}},{"type":"Feature","geometry":{"type":"Point","coordinates":[106.6664075,10.7412212]},"properties":{"area_label":"Phường 11, Quận 8","property_type":"house","median_price_per_m2":146153846.15384614,"price_per_m2_q25":146153846.15384614,"price_per_m2_q75":146153846.15384614,"n_properties":1,"geo_precision_tier":"WARD_APPROXIMATE"}},{"type":"Feature","geometry":{"type":"Point","coordinates":[106.6859287,10.8315192]},"properties":{"area_label":"P.12 cũ, Quận Gò Vấp","property_type":"land","median_price_per_m2":137005649.71751413,"price_per_m2_q25":137005649.71751413,"price_per_m2_q75":137005649.71751413,"n_properties":1,"geo_precision_tier":"WARD_APPROXIMATE"}},{"type":"Feature","geometry":{"type":"Point","coordinates":[106.5918016,10.7510379]},"properties":{"area_label":"Tân Tạo A, Quận Bình Tân","property_type":"house","median_price_per_m2":40000000.0,"price_per_m2_q25":40000000.0,"price_per_m2_q75":40000000.0,"n_properties":1,"geo_precision_tier":"WARD_APPROXIMATE"}},{"type":"Feature","geometry":{"type":"Point","coordinates":[106.7061889,10.8263833]},"properties":{"area_label":"P.13, Quận Bình Thạnh","property_type":"land","median_price_per_m2":165000000.0,"price_per_m2_q25":165000000.0,"price_per_m2_q75":165000000.0,"n_properties":1,"geo_precision_tier":"WARD_APPROXIMATE"}},{"type":"Feature","geometry":{"type":"Point","coordinates":[106.7348612,10.7141195]},"properties":{"area_label":"Phường Phú Mỹ, Quận 7","property_type":"land","median_price_per_m2":112781954.88721804,"price_per_m2_q25":101111111.1111111,"price_per_m2_q75":127777777.77777778,"n_properties":3,"geo_precision_tier":"WARD_APPROXIMATE"}},{"type":"Feature","geometry":{"type":"Point","coordinates":[106.69135,10.7766343]},"properties":{"area_label":"Phường 12, Quận 3","property_type":"apartment","median_price_per_m2":53496503.496503495,"price_per_m2_q25":45454545.45454545,"price_per_m2_q75":61538461.538461536,"n_properties":2,"geo_precision_tier":"WARD_APPROXIMATE"}},{"type":"Feature","geometry":{"type":"Point","coordinates":[106.7041639,10.7301154]},"properties":{"area_label":"Phường Tân Hưng, Quận 7","property_type":"apartment","median_price_per_m2":30857142.85714286,"price_per_m2_q25":22600000.0,"price_per_m2_q75":45842217.48400853,"n_properties":3,"geo_precision_tier":"WARD_APPROXIMATE"}},{"type":"Feature","geometry":{"type":"Point","coordinates":[106.5918016,10.7510379]},"properties":{"area_label":"Phường Tân Tạo, Quận Bình Tân","property_type":"land","median_price_per_m2":93750000.0,"price_per_m2_q25":93750000.0,"price_per_m2_q75":93750000.0,"n_properties":1,"geo_precision_tier":"WARD_APPROXIMATE"}},{"type":"Feature","geometry":{"type":"Point","coordinates":[106.7460498,10.8040647]},"properties":{"area_label":"P. Thảo Điền, Thành phố Thủ Đức","property_type":"land","median_price_per_m2":100000.0,"price_per_m2_q25":100000.0,"price_per_m2_q75":100000.0,"n_properties":1,"geo_precision_tier":"WARD_APPROXIMATE"}},{"type":"Feature","geometry":{"type":"Point","coordinates":[106.6843366,10.8303484]},"properties":{"area_label":"P.10, Quận Gò Vấp","property_type":"land","median_price_per_m2":77647058.8235294,"price_per_m2_q25":77647058.8235294,"price_per_m2_q75":77647058.8235294,"n_properties":1,"geo_precision_tier":"WARD_APPROXIMATE"}},{"type":"Feature","geometry":{"type":"Point","coordinates":[106.6148172,10.8692542]},"properties":{"area_label":"Xã Trung Chánh, Huyện Hóc Môn","property_type":"land","median_price_per_m2":38888888.88888889,"price_per_m2_q25":38888888.88888889,"price_per_m2_q75":38888888.88888889,"n_properties":1,"geo_precision_tier":"WARD_APPROXIMATE"}},{"type":"Feature","geometry":{"type":"Point","coordinates":[106.6532293,10.86467]},"properties":{"area_label":"Phường Thới An, Quận 12","property_type":"house","median_price_per_m2":111233108.1081081,"price_per_m2_q25":106250000.0,"price_per_m2_q75":116216216.21621622,"n_properties":2,"geo_precision_tier":"WARD_APPROXIMATE"}},{"type":"Feature","geometry":{"type":"Point","coordinates":[106.6404873,10.8673037]},"properties":{"area_label":"Phường Long Trường, Thành phố Thủ Đức","property_type":"land","median_price_per_m2":69680851.0638298,"price_per_m2_q25":54988888.88888889,"price_per_m2_q75":74000000.0,"n_properties":3,"geo_precision_tier":"WARD_APPROXIMATE"}},{"type":"Feature","geometry":{"type":"Point","coordinates":[106.6912169,10.8545403]},"properties":{"area_label":"Phường An Phú, Thành phố Thủ Đức","property_type":"house","median_price_per_m2":274747500.0,"price_per_m2_q25":259495000.0,"price_per_m2_q75":290000000.0,"n_properties":2,"geo_precision_tier":"WARD_APPROXIMATE"}},{"type":"Feature","geometry":{"type":"Point","coordinates":[106.6840524,10.8025151]},"properties":{"area_label":"Phường 2, Quận 10","property_type":"apartment","median_price_per_m2":62142857.14285714,"price_per_m2_q25":23083333.333333332,"price_per_m2_q75":62142857.14285714,"n_properties":3,"geo_precision_tier":"WARD_APPROXIMATE"}},{"type":"Feature","geometry":{"type":"Point","coordinates":[106.6468455,10.8044247]},"properties":{"area_label":"Phường 13, Quận Tân Bình","property_type":"house","median_price_per_m2":166111111.1111111,"price_per_m2_q25":166111111.1111111,"price_per_m2_q75":166111111.1111111,"n_properties":1,"geo_precision_tier":"WARD_APPROXIMATE"}},{"type":"Feature","geometry":{"type":"Point","coordinates":[106.6914967,10.7790996]},"properties":{"area_label":"Phường 4, Quận 3","property_type":"other","median_price_per_m2":840000000.0,"price_per_m2_q25":840000000.0,"price_per_m2_q75":840000000.0,"n_properties":1,"geo_precision_tier":"WARD_APPROXIMATE"}},{"type":"Feature","geometry":{"type":"Point","coordinates":[106.6840524,10.8025151]},"properties":{"area_label":"Phường 10, Quận Phú Nhuận","property_type":"apartment","median_price_per_m2":40000000.0,"price_per_m2_q25":40000000.0,"price_per_m2_q75":40000000.0,"n_properties":1,"geo_precision_tier":"WARD_APPROXIMATE"}},{"type":"Feature","geometry":{"type":"Point","coordinates":[106.6950654,10.7618339]},"properties":{"area_label":"Phường Cô Giang, Quận 1","property_type":"house","median_price_per_m2":400000000.0,"price_per_m2_q25":400000000.0,"price_per_m2_q75":400000000.0,"n_properties":1,"geo_precision_tier":"WARD_APPROXIMATE"}},{"type":"Feature","geometry":{"type":"Point","coordinates":[106.7472609,10.8043499]},"properties":{"area_label":"Phường An Khánh, Thành phố Thủ Đức","property_type":"house","median_price_per_m2":197278911.56462586,"price_per_m2_q25":94339622.64150943,"price_per_m2_q75":510416666.6666667,"n_properties":3,"geo_precision_tier":"WARD_APPROXIMATE"}},{"type":"Feature","geometry":{"type":"Point","coordinates":[106.6469957,10.7716986]},"properties":{"area_label":"P.5, Quận 10","property_type":"house","median_price_per_m2":185185185.1851852,"price_per_m2_q25":185185185.1851852,"price_per_m2_q75":185185185.1851852,"n_properties":1,"geo_precision_tier":"WARD_APPROXIMATE"}},{"type":"Feature","geometry":{"type":"Point","coordinates":[106.6832206,10.7933512]},"properties":{"area_label":"Phường 1, Quận Phú Nhuận","property_type":"house","median_price_per_m2":201785714.2857143,"price_per_m2_q25":201785714.2857143,"price_per_m2_q75":201785714.2857143,"n_properties":1,"geo_precision_tier":"WARD_APPROXIMATE"}},{"type":"Feature","geometry":{"type":"Point","coordinates":[106.6912169,10.8545403]},"properties":{"area_label":"Phường An Phú, Thành phố Thủ Đức","property_type":"apartment","median_price_per_m2":138741258.74125874,"price_per_m2_q25":138741258.74125874,"price_per_m2_q75":138741258.74125874,"n_properties":1,"geo_precision_tier":"WARD_APPROXIMATE"}},{"type":"Feature","geometry":{"type":"Point","coordinates":[106.6408619,10.7691922]},"properties":{"area_label":"Phường 12, Quận Bình Thạnh","property_type":"land","median_price_per_m2":157213114.75409836,"price_per_m2_q25":157213114.75409836,"price_per_m2_q75":157213114.75409836,"n_properties":1,"geo_precision_tier":"WARD_APPROXIMATE"}},{"type":"Feature","geometry":{"type":"Point","coordinates":[106.6638135,10.8060049]},"properties":{"area_label":"Phường 9, Quận Tân Bình","property_type":"apartment","median_price_per_m2":37068965.51724138,"price_per_m2_q25":37068965.51724138,"price_per_m2_q75":37068965.51724138,"n_properties":1,"geo_precision_tier":"WARD_APPROXIMATE"}},{"type":"Feature","geometry":{"type":"Point","coordinates":[106.7282985,10.7203043]},"properties":{"area_label":"Phường 12, Quận 4","property_type":"apartment","median_price_per_m2":34487179.48717949,"price_per_m2_q25":34487179.48717949,"price_per_m2_q75":34487179.48717949,"n_properties":1,"geo_precision_tier":"WARD_APPROXIMATE"}},{"type":"Feature","geometry":{"type":"Point","coordinates":[106.663753,10.8103716]},"properties":{"area_label":"Phường Trường Thạnh, Thành phố Thủ Đức","property_type":"land","median_price_per_m2":77258403.36134455,"price_per_m2_q25":70588235.29411764,"price_per_m2_q75":83928571.42857143,"n_properties":2,"geo_precision_tier":"WARD_APPROXIMATE"}},{"type":"Feature","geometry":{"type":"Point","coordinates":[106.7053184,10.7704432]},"properties":{"area_label":"Phường 11, Quận Bình Thạnh","property_type":"apartment","median_price_per_m2":45855263.15789474,"price_per_m2_q25":40877192.98245614,"price_per_m2_q75":50833333.333333336,"n_properties":2,"geo_precision_tier":"WARD_APPROXIMATE"}},{"type":"Feature","geometry":{"type":"Point","coordinates":[106.7423989,10.8026487]},"properties":{"area_label":"Thảo Điền, Thành phố Thủ Đức","property_type":"land","median_price_per_m2":234583333.3333333,"price_per_m2_q25":229166666.66666666,"price_per_m2_q75":240000000.0,"n_properties":2,"geo_precision_tier":"WARD_APPROXIMATE"}},{"type":"Feature","geometry":{"type":"Point","coordinates":[106.7658051,10.783647]},"properties":{"area_label":"Phường Bình Trưng Tây, Thành phố Thủ Đức","property_type":"apartment","median_price_per_m2":43833333.333333336,"price_per_m2_q25":43833333.333333336,"price_per_m2_q75":43833333.333333336,"n_properties":1,"geo_precision_tier":"WARD_APPROXIMATE"}},{"type":"Feature","geometry":{"type":"Point","coordinates":[106.6259541,10.8673521]},"properties":{"area_label":"Phường Trung Mỹ Tây, Quận 12","property_type":"land","median_price_per_m2":65000000.0,"price_per_m2_q25":65000000.0,"price_per_m2_q75":65000000.0,"n_properties":1,"geo_precision_tier":"WARD_APPROXIMATE"}},{"type":"Feature","geometry":{"type":"Point","coordinates":[106.6452583,10.7685419]},"properties":{"area_label":"P.11, Quận 6","property_type":"house","median_price_per_m2":86111111.1111111,"price_per_m2_q25":86111111.1111111,"price_per_m2_q75":86111111.1111111,"n_properties":1,"geo_precision_tier":"WARD_APPROXIMATE"}},{"type":"Feature","geometry":{"type":"Point","coordinates":[106.7209052,10.7989297]},"properties":{"area_label":"Phường 15, Quận Tân Bình","property_type":"house","median_price_per_m2":100000000.0,"price_per_m2_q25":100000000.0,"price_per_m2_q75":100000000.0,"n_properties":1,"geo_precision_tier":"WARD_APPROXIMATE"}},{"type":"Feature","geometry":{"type":"Point","coordinates":[106.6659208,10.7390739]},"properties":{"area_label":"Phường 6, Quận 8","property_type":"apartment","median_price_per_m2":43602941.17647059,"price_per_m2_q25":25441176.470588237,"price_per_m2_q75":61764705.88235294,"n_properties":2,"geo_precision_tier":"WARD_APPROXIMATE"}},{"type":"Feature","geometry":{"type":"Point","coordinates":[106.666184,10.7421366]},"properties":{"area_label":"Phường 5, Quận 8","property_type":"apartment","median_price_per_m2":51646706.58682635,"price_per_m2_q25":40625000.0,"price_per_m2_q75":52653061.22448979,"n_properties":3,"geo_precision_tier":"WARD_APPROXIMATE"}},{"type":"Feature","geometry":{"type":"Point","coordinates":[106.6222679,10.8308138]},"properties":{"area_label":"Tân Hưng Thuận, Quận 12","property_type":"house","median_price_per_m2":85365853.65853658,"price_per_m2_q25":85365853.65853658,"price_per_m2_q75":85365853.65853658,"n_properties":1,"geo_precision_tier":"WARD_APPROXIMATE"}},{"type":"Feature","geometry":{"type":"Point","coordinates":[106.6903094,10.7721864]},"properties":{"area_label":"Phường 18, Quận 4","property_type":"apartment","median_price_per_m2":67500000.0,"price_per_m2_q25":67500000.0,"price_per_m2_q75":67500000.0,"n_properties":1,"geo_precision_tier":"WARD_APPROXIMATE"}},{"type":"Feature","geometry":{"type":"Point","coordinates":[106.625859,10.8430984]},"properties":{"area_label":"Đông Hưng Thuận, Quận 12","property_type":"house","median_price_per_m2":83333333.33333333,"price_per_m2_q25":62857142.85714286,"price_per_m2_q75":102777777.77777778,"n_properties":5,"geo_precision_tier":"WARD_APPROXIMATE"}},{"type":"Feature","geometry":{"type":"Point","coordinates":[106.7460498,10.8040647]},"properties":{"area_label":"P.Thảo Điền, Thành phố Thủ Đức","property_type":"land","median_price_per_m2":107438016.52892561,"price_per_m2_q25":107438016.52892561,"price_per_m2_q75":107438016.52892561,"n_properties":1,"geo_precision_tier":"WARD_APPROXIMATE"}},{"type":"Feature","geometry":{"type":"Point","coordinates":[106.6664075,10.7412212]},"properties":{"area_label":"Phường 11, Quận 5","property_type":"apartment","median_price_per_m2":60037878.78787878,"price_per_m2_q25":53409090.90909091,"price_per_m2_q75":66666666.666666664,"n_properties":2,"geo_precision_tier":"WARD_APPROXIMATE"}},{"type":"Feature","geometry":{"type":"Point","coordinates":[106.6674006,10.8125589]},"properties":{"area_label":"Phường 2, Quận Tân Bình","property_type":"land","median_price_per_m2":135374149.65986395,"price_per_m2_q25":135374149.65986395,"price_per_m2_q75":135374149.65986395,"n_properties":1,"geo_precision_tier":"WARD_APPROXIMATE"}},{"type":"Feature","geometry":{"type":"Point","coordinates":[106.625859,10.8430984]},"properties":{"area_label":"Đông Hưng Thuận, Quận 12","property_type":"apartment","median_price_per_m2":25000000.0,"price_per_m2_q25":25000000.0,"price_per_m2_q75":25000000.0,"n_properties":1,"geo_precision_tier":"WARD_APPROXIMATE"}},{"type":"Feature","geometry":{"type":"Point","coordinates":[106.6422652,10.8289607]},"properties":{"area_label":"Phường Gia Định, Quận Bình Thạnh","property_type":"house","median_price_per_m2":132666666.66666667,"price_per_m2_q25":132666666.66666667,"price_per_m2_q75":132666666.66666667,"n_properties":1,"geo_precision_tier":"WARD_APPROXIMATE"}},{"type":"Feature","geometry":{"type":"Point","coordinates":[106.6319448,10.738776]},"properties":{"area_label":"Phường 10, Quận 6","property_type":"house","median_price_per_m2":180000000.0,"price_per_m2_q25":180000000.0,"price_per_m2_q75":180000000.0,"n_properties":1,"geo_precision_tier":"WARD_APPROXIMATE"}},{"type":"Feature","geometry":{"type":"Point","coordinates":[106.6532293,10.86467]},"properties":{"area_label":"Phường Thới An, Quận 12","property_type":"land","median_price_per_m2":55000000.0,"price_per_m2_q25":55000000.0,"price_per_m2_q75":55000000.0,"n_properties":1,"geo_precision_tier":"WARD_APPROXIMATE"}},{"type":"Feature","geometry":{"type":"Point","coordinates":[106.7472609,10.8043499]},"properties":{"area_label":"Phường An Khánh, Thành phố Thủ Đức","property_type":"land","median_price_per_m2":272211111.1111111,"price_per_m2_q25":272211111.1111111,"price_per_m2_q75":272211111.1111111,"n_properties":1,"geo_precision_tier":"WARD_APPROXIMATE"}},{"type":"Feature","geometry":{"type":"Point","coordinates":[106.6259541,10.8673521]},"properties":{"area_label":"Phường Tân Chánh Hiệp, Quận 12","property_type":"house","median_price_per_m2":111458333.33333333,"price_per_m2_q25":111458333.33333333,"price_per_m2_q75":111458333.33333333,"n_properties":1,"geo_precision_tier":"WARD_APPROXIMATE"}},{"type":"Feature","geometry":{"type":"Point","coordinates":[106.68625265,10.78467685]},"properties":{"area_label":"Phường 17, Quận Bình Thạnh","property_type":"apartment","median_price_per_m2":71000000.0,"price_per_m2_q25":71000000.0,"price_per_m2_q75":71000000.0,"n_properties":1,"geo_precision_tier":"WARD_APPROXIMATE"}},{"type":"Feature","geometry":{"type":"Point","coordinates":[106.6393958,10.7567266]},"properties":{"area_label":"Phường 1, Quận 11","property_type":"land","median_price_per_m2":97879282.21859707,"price_per_m2_q25":97879282.21859707,"price_per_m2_q75":97879282.21859707,"n_properties":1,"geo_precision_tier":"WARD_APPROXIMATE"}},{"type":"Feature","geometry":{"type":"Point","coordinates":[106.6840524,10.8025151]},"properties":{"area_label":"Phường Cầu Kiệu, Quận Phú Nhuận","property_type":"house","median_price_per_m2":138000000.0,"price_per_m2_q25":138000000.0,"price_per_m2_q75":138000000.0,"n_properties":1,"geo_precision_tier":"WARD_APPROXIMATE"}},{"type":"Feature","geometry":{"type":"Point","coordinates":[106.70160285,10.7309217]},"properties":{"area_label":"Phường Tân Phong, Quận 7","property_type":"house","median_price_per_m2":208333333.33333334,"price_per_m2_q25":208333333.33333334,"price_per_m2_q75":208333333.33333334,"n_properties":1,"geo_precision_tier":"WARD_APPROXIMATE"}},{"type":"Feature","geometry":{"type":"Point","coordinates":[106.6238898,10.8131991]},"properties":{"area_label":"Phường Tây Thạnh, Quận Tân Phú","property_type":"land","median_price_per_m2":165413533.83458647,"price_per_m2_q25":165413533.83458647,"price_per_m2_q75":165413533.83458647,"n_properties":1,"geo_precision_tier":"WARD_APPROXIMATE"}},{"type":"Feature","geometry":{"type":"Point","coordinates":[106.7061889,10.8263833]},"properties":{"area_label":"Phường 13, Quận Bình Thạnh","property_type":"land","median_price_per_m2":133397982.93250582,"price_per_m2_q25":100000000.0,"price_per_m2_q75":166795965.86501163,"n_properties":2,"geo_precision_tier":"WARD_APPROXIMATE"}},{"type":"Feature","geometry":{"type":"Point","coordinates":[106.6736256,10.7497682]},"properties":{"area_label":"Phường 4, Quận 5","property_type":"house","median_price_per_m2":190909090.9090909,"price_per_m2_q25":190909090.9090909,"price_per_m2_q75":190909090.9090909,"n_properties":1,"geo_precision_tier":"WARD_APPROXIMATE"}},{"type":"Feature","geometry":{"type":"Point","coordinates":[106.67135155,10.758440499999999]},"properties":{"area_label":"Phường 9, Quận 5","property_type":"apartment","median_price_per_m2":38541666.666666664,"price_per_m2_q25":38541666.666666664,"price_per_m2_q75":38541666.666666664,"n_properties":1,"geo_precision_tier":"WARD_APPROXIMATE"}},{"type":"Feature","geometry":{"type":"Point","coordinates":[106.6356164,10.7354158]},"properties":{"area_label":"Phường 11, Quận 6","property_type":"apartment","median_price_per_m2":41215277.777777776,"price_per_m2_q25":40208333.333333336,"price_per_m2_q75":47674418.60465116,"n_properties":4,"geo_precision_tier":"WARD_APPROXIMATE"}},{"type":"Feature","geometry":{"type":"Point","coordinates":[106.6319448,10.738776]},"properties":{"area_label":"phường 10, Quận 6","property_type":"land","median_price_per_m2":116405228.75816993,"price_per_m2_q25":110588235.29411764,"price_per_m2_q75":123529411.76470588,"n_properties":4,"geo_precision_tier":"WARD_APPROXIMATE"}},{"type":"Feature","geometry":{"type":"Point","coordinates":[106.6262024,10.8103795]},"properties":{"area_label":"Phú Thạnh, Quận Tân Phú","property_type":"apartment","median_price_per_m2":32777777.777777776,"price_per_m2_q25":32222222.222222224,"price_per_m2_q75":33333333.333333332,"n_properties":2,"geo_precision_tier":"WARD_APPROXIMATE"}},{"type":"Feature","geometry":{"type":"Point","coordinates":[106.7017849,10.7781862]},"properties":{"area_label":"Phường Bến Nghé, Quận 1","property_type":"land","median_price_per_m2":3632478.6324786325,"price_per_m2_q25":3632478.6324786325,"price_per_m2_q75":3632478.6324786325,"n_properties":1,"geo_precision_tier":"WARD_APPROXIMATE"}},{"type":"Feature","geometry":{"type":"Point","coordinates":[106.7041639,10.7301154]},"properties":{"area_label":"Tân Phong, Quận 7","property_type":"apartment","median_price_per_m2":96330275.2293578,"price_per_m2_q25":96330275.2293578,"price_per_m2_q75":96330275.2293578,"n_properties":1,"geo_precision_tier":"WARD_APPROXIMATE"}},{"type":"Feature","geometry":{"type":"Point","coordinates":[106.7389621,10.7681937]},"properties":{"area_label":"Phường Tân Thuận Đông, Quận 7","property_type":"land","median_price_per_m2":123674242.42424242,"price_per_m2_q25":112500000.0,"price_per_m2_q75":134848484.84848484,"n_properties":2,"geo_precision_tier":"WARD_APPROXIMATE"}},{"type":"Feature","geometry":{"type":"Point","coordinates":[106.641707,10.7631082]},"properties":{"area_label":"Phường 2, Quận Bình Thạnh","property_type":"house","median_price_per_m2":326530612.24489796,"price_per_m2_q25":326530612.24489796,"price_per_m2_q75":326530612.24489796,"n_properties":1,"geo_precision_tier":"WARD_APPROXIMATE"}},{"type":"Feature","geometry":{"type":"Point","coordinates":[106.7724465,10.7936359]},"properties":{"area_label":"An Phú, Thành phố Thủ Đức","property_type":"house","median_price_per_m2":235000000.0,"price_per_m2_q25":235000000.0,"price_per_m2_q75":235000000.0,"n_properties":1,"geo_precision_tier":"WARD_APPROXIMATE"}},{"type":"Feature","geometry":{"type":"Point","coordinates":[106.6752862,10.766766]},"properties":{"area_label":"Phường 15, Quận 10","property_type":"apartment","median_price_per_m2":55000000.0,"price_per_m2_q25":55000000.0,"price_per_m2_q75":55000000.0,"n_properties":1,"geo_precision_tier":"WARD_APPROXIMATE"}},{"type":"Feature","geometry":{"type":"Point","coordinates":[106.7584516,10.7829067]},"properties":{"area_label":"Phường Thạnh Mỹ Lợi, Thành phố Thủ Đức","property_type":"house","median_price_per_m2":101785714.28571428,"price_per_m2_q25":101785714.28571428,"price_per_m2_q75":101785714.28571428,"n_properties":1,"geo_precision_tier":"WARD_APPROXIMATE"}},{"type":"Feature","geometry":{"type":"Point","coordinates":[106.6355204,10.9043448]},"properties":{"area_label":"Xã Đông Thạnh, Huyện Hóc Môn","property_type":"land","median_price_per_m2":20000000.0,"price_per_m2_q25":20000000.0,"price_per_m2_q75":20000000.0,"n_properties":1,"geo_precision_tier":"WARD_APPROXIMATE"}},{"type":"Feature","geometry":{"type":"Point","coordinates":[106.6259541,10.8673521]},"properties":{"area_label":"Phường Trung Mỹ Tây, Quận 12","property_type":"apartment","median_price_per_m2":35185185.18518519,"price_per_m2_q25":35185185.18518519,"price_per_m2_q75":35185185.18518519,"n_properties":1,"geo_precision_tier":"WARD_APPROXIMATE"}},{"type":"Feature","geometry":{"type":"Point","coordinates":[106.67031935,10.76422005]},"properties":{"area_label":"Phường 12, Quận 10","property_type":"apartment","median_price_per_m2":145348837.20930234,"price_per_m2_q25":145348837.20930234,"price_per_m2_q75":145348837.20930234,"n_properties":1,"geo_precision_tier":"WARD_APPROXIMATE"}},{"type":"Feature","geometry":{"type":"Point","coordinates":[106.6314196,10.7539993]},"properties":{"area_label":"Phường 13, Quận 6","property_type":"apartment","median_price_per_m2":50000000.0,"price_per_m2_q25":50000000.0,"price_per_m2_q75":50000000.0,"n_properties":1,"geo_precision_tier":"WARD_APPROXIMATE"}},{"type":"Feature","geometry":{"type":"Point","coordinates":[106.7566561,10.8564327]},"properties":{"area_label":"Linh Trung, Thành phố Thủ Đức","property_type":"land","median_price_per_m2":75471698.11320755,"price_per_m2_q25":75471698.11320755,"price_per_m2_q75":75471698.11320755,"n_properties":1,"geo_precision_tier":"WARD_APPROXIMATE"}},{"type":"Feature","geometry":{"type":"Point","coordinates":[106.6336213,10.7545571]},"properties":{"area_label":"phường 6, Quận 10","property_type":"house","median_price_per_m2":319242424.24242425,"price_per_m2_q25":248484848.4848485,"price_per_m2_q75":390000000.0,"n_properties":2,"geo_precision_tier":"WARD_APPROXIMATE"}},{"type":"Feature","geometry":{"type":"Point","coordinates":[106.6912637,10.7766983]},"properties":{"area_label":"Phường 14, Quận 3","property_type":"other","median_price_per_m2":87897227.8566599,"price_per_m2_q25":87897227.8566599,"price_per_m2_q75":87897227.8566599,"n_properties":1,"geo_precision_tier":"WARD_APPROXIMATE"}},{"type":"Feature","geometry":{"type":"Point","coordinates":[106.6438982,10.7328918]},"properties":{"area_label":"P6, Quận 8","property_type":"apartment","median_price_per_m2":41461538.461538464,"price_per_m2_q25":40000000.0,"price_per_m2_q75":42923076.92307692,"n_properties":2,"geo_precision_tier":"WARD_APPROXIMATE"}},{"type":"Feature","geometry":{"type":"Point","coordinates":[106.5832489,10.8937624]},"properties":{"area_label":"Xã Tân Xuân, Huyện Hóc Môn","property_type":"house","median_price_per_m2":100000000.0,"price_per_m2_q25":100000000.0,"price_per_m2_q75":100000000.0,"n_properties":1,"geo_precision_tier":"WARD_APPROXIMATE"}},{"type":"Feature","geometry":{"type":"Point","coordinates":[106.6404873,10.8673037]},"properties":{"area_label":"Phường Long Trường, Thành phố Thủ Đức","property_type":"house","median_price_per_m2":100000000.0,"price_per_m2_q25":100000000.0,"price_per_m2_q75":100000000.0,"n_properties":2,"geo_precision_tier":"WARD_APPROXIMATE"}},{"type":"Feature","geometry":{"type":"Point","coordinates":[106.6355204,10.9043448]},"properties":{"area_label":"Đông Thạnh, Huyện Hóc Môn","property_type":"land","median_price_per_m2":29200000.0,"price_per_m2_q25":29200000.0,"price_per_m2_q75":29200000.0,"n_properties":1,"geo_precision_tier":"WARD_APPROXIMATE"}},{"type":"Feature","geometry":{"type":"Point","coordinates":[106.6984717,10.7907995]},"properties":{"area_label":"Phường 14, Quận Tân Bình","property_type":"apartment","median_price_per_m2":58783783.783783786,"price_per_m2_q25":58783783.783783786,"price_per_m2_q75":58783783.783783786,"n_properties":1,"geo_precision_tier":"WARD_APPROXIMATE"}},{"type":"Feature","geometry":{"type":"Point","coordinates":[106.6649389,10.7416082]},"properties":{"area_label":"Phường 2, Quận 8","property_type":"apartment","median_price_per_m2":47913446.67697063,"price_per_m2_q25":47913446.67697063,"price_per_m2_q75":47913446.67697063,"n_properties":1,"geo_precision_tier":"WARD_APPROXIMATE"}},{"type":"Feature","geometry":{"type":"Point","coordinates":[106.641707,10.7631082]},"properties":{"area_label":"Phường 2, Quận Bình Thạnh","property_type":"land","median_price_per_m2":292452830.1886792,"price_per_m2_q25":292452830.1886792,"price_per_m2_q75":292452830.1886792,"n_properties":1,"geo_precision_tier":"WARD_APPROXIMATE"}},{"type":"Feature","geometry":{"type":"Point","coordinates":[106.7061889,10.8263833]},"properties":{"area_label":"P.13, Quận Bình Thạnh","property_type":"house","median_price_per_m2":160256410.25641027,"price_per_m2_q25":160256410.25641027,"price_per_m2_q75":160256410.25641027,"n_properties":1,"geo_precision_tier":"WARD_APPROXIMATE"}},{"type":"Feature","geometry":{"type":"Point","coordinates":[106.6837081,10.8017404]},"properties":{"area_label":"Đức Nhuận, Quận Phú Nhuận","property_type":"land","median_price_per_m2":84033613.44537815,"price_per_m2_q25":84033613.44537815,"price_per_m2_q75":84033613.44537815,"n_properties":1,"geo_precision_tier":"WARD_APPROXIMATE"}},{"type":"Feature","geometry":{"type":"Point","coordinates":[106.6840524,10.8025151]},"properties":{"area_label":"Phú nhuận, Quận Phú Nhuận","property_type":"house","median_price_per_m2":178571428.57142857,"price_per_m2_q25":178571428.57142857,"price_per_m2_q75":178571428.57142857,"n_properties":1,"geo_precision_tier":"WARD_APPROXIMATE"}},{"type":"Feature","geometry":{"type":"Point","coordinates":[106.6501697,10.8706159]},"properties":{"area_label":"Phường Tân Thới Hiệp, Quận 12","property_type":"house","median_price_per_m2":126000000.0,"price_per_m2_q25":126000000.0,"price_per_m2_q75":126000000.0,"n_properties":1,"geo_precision_tier":"WARD_APPROXIMATE"}},{"type":"Feature","geometry":{"type":"Point","coordinates":[106.7658051,10.783647]},"properties":{"area_label":"Phường Bình Trưng Tây, Thành phố Thủ Đức","property_type":"house","median_price_per_m2":57522123.89380531,"price_per_m2_q25":57522123.89380531,"price_per_m2_q75":57522123.89380531,"n_properties":1,"geo_precision_tier":"WARD_APPROXIMATE"}},{"type":"Feature","geometry":{"type":"Point","coordinates":[106.7376503,10.7162517]},"properties":{"area_label":"Tân Phú, Quận 7","property_type":"house","median_price_per_m2":97031963.47031963,"price_per_m2_q25":97031963.47031963,"price_per_m2_q75":97031963.47031963,"n_properties":1,"geo_precision_tier":"WARD_APPROXIMATE"}},{"type":"Feature","geometry":{"type":"Point","coordinates":[106.7566561,10.8564327]},"properties":{"area_label":"Linh Trung, Thành phố Thủ Đức","property_type":"house","median_price_per_m2":100000000.0,"price_per_m2_q25":100000000.0,"price_per_m2_q75":100000000.0,"n_properties":1,"geo_precision_tier":"WARD_APPROXIMATE"}},{"type":"Feature","geometry":{"type":"Point","coordinates":[106.6597746,10.8003967]},"properties":{"area_label":"Phường 7, Quận Bình Thạnh","property_type":"other","median_price_per_m2":84586466.16541353,"price_per_m2_q25":84586466.16541353,"price_per_m2_q75":84586466.16541353,"n_properties":1,"geo_precision_tier":"WARD_APPROXIMATE"}},{"type":"Feature","geometry":{"type":"Point","coordinates":[106.7658051,10.783647]},"properties":{"area_label":"Bình Trưng Tây, Thành phố Thủ Đức","property_type":"house","median_price_per_m2":40000000.0,"price_per_m2_q25":40000000.0,"price_per_m2_q75":40000000.0,"n_properties":1,"geo_precision_tier":"WARD_APPROXIMATE"}},{"type":"Feature","geometry":{"type":"Point","coordinates":[106.6483103,10.7544303]},"properties":{"area_label":"Phường 16, Quận 11","property_type":"apartment","median_price_per_m2":80071174.37722419,"price_per_m2_q25":80071174.37722419,"price_per_m2_q75":80071174.37722419,"n_properties":1,"geo_precision_tier":"WARD_APPROXIMATE"}},{"type":"Feature","geometry":{"type":"Point","coordinates":[106.6294974,10.7438421]},"properties":{"area_label":"Phường 19, Quận Bình Thạnh","property_type":"apartment","median_price_per_m2":54285714.28571428,"price_per_m2_q25":54285714.28571428,"price_per_m2_q75":54285714.28571428,"n_properties":1,"geo_precision_tier":"WARD_APPROXIMATE"}},{"type":"Feature","geometry":{"type":"Point","coordinates":[106.7041881,10.7655206]},"properties":{"area_label":"Phường 6, Quận 4","property_type":"apartment","median_price_per_m2":109523809.52380952,"price_per_m2_q25":109523809.52380952,"price_per_m2_q75":109523809.52380952,"n_properties":1,"geo_precision_tier":"WARD_APPROXIMATE"}},{"type":"Feature","geometry":{"type":"Point","coordinates":[106.6605145,10.7883675]},"properties":{"area_label":"Phường 26, Quận Bình Thạnh","property_type":"house","median_price_per_m2":158823529.4117647,"price_per_m2_q25":158823529.4117647,"price_per_m2_q75":158823529.4117647,"n_properties":1,"geo_precision_tier":"WARD_APPROXIMATE"}},{"type":"Feature","geometry":{"type":"Point","coordinates":[106.6950654,10.7618339]},"properties":{"area_label":"Phường Cô Giang, Quận 1","property_type":"land","median_price_per_m2":442600276.6251729,"price_per_m2_q25":442600276.6251729,"price_per_m2_q75":442600276.6251729,"n_properties":1,"geo_precision_tier":"WARD_APPROXIMATE"}},{"type":"Feature","geometry":{"type":"Point","coordinates":[106.6508148,10.767957]},"properties":{"area_label":"Phường 11, Quận 11","property_type":"house","median_price_per_m2":188732394.3661972,"price_per_m2_q25":188732394.3661972,"price_per_m2_q75":188732394.3661972,"n_properties":1,"geo_precision_tier":"WARD_APPROXIMATE"}},{"type":"Feature","geometry":{"type":"Point","coordinates":[106.7041639,10.7301154]},"properties":{"area_label":"Phường Tân Hưng, Quận 7","property_type":"house","median_price_per_m2":88750000.0,"price_per_m2_q25":70000000.0,"price_per_m2_q75":107500000.0,"n_properties":2,"geo_precision_tier":"WARD_APPROXIMATE"}},{"type":"Feature","geometry":{"type":"Point","coordinates":[106.7389621,10.7681937]},"properties":{"area_label":"P. Tân Thuận Đông, Quận 7","property_type":"land","median_price_per_m2":9837837.837837838,"price_per_m2_q25":9837837.837837838,"price_per_m2_q75":9837837.837837838,"n_properties":1,"geo_precision_tier":"WARD_APPROXIMATE"}},{"type":"Feature","geometry":{"type":"Point","coordinates":[106.6544302,10.7730701]},"properties":{"area_label":"Phường Phú Thọ Hòa, Quận Tân Phú","property_type":"apartment","median_price_per_m2":39024390.24390244,"price_per_m2_q25":39024390.24390244,"price_per_m2_q75":39024390.24390244,"n_properties":1,"geo_precision_tier":"WARD_APPROXIMATE"}},{"type":"Feature","geometry":{"type":"Point","coordinates":[106.6912169,10.8545403]},"properties":{"area_label":"phường An Phú, Thành phố Thủ Đức","property_type":"apartment","median_price_per_m2":63500000.0,"price_per_m2_q25":63500000.0,"price_per_m2_q75":63500000.0,"n_properties":1,"geo_precision_tier":"WARD_APPROXIMATE"}},{"type":"Feature","geometry":{"type":"Point","coordinates":[106.6422851,10.7481249]},"properties":{"area_label":"Phường Bình Tây, Quận 6","property_type":"apartment","median_price_per_m2":21352941.17647059,"price_per_m2_q25":21352941.17647059,"price_per_m2_q75":21352941.17647059,"n_properties":1,"geo_precision_tier":"WARD_APPROXIMATE"}},{"type":"Feature","geometry":{"type":"Point","coordinates":[106.7658051,10.783647]},"properties":{"area_label":"Phường Bình Trưng Tây, Thành phố Thủ Đức","property_type":"land","median_price_per_m2":176190476.19047618,"price_per_m2_q25":176190476.19047618,"price_per_m2_q75":176190476.19047618,"n_properties":1,"geo_precision_tier":"WARD_APPROXIMATE"}},{"type":"Feature","geometry":{"type":"Point","coordinates":[106.6756704,10.7664812]},"properties":{"area_label":"Phường 13, Quận 10","property_type":"apartment","median_price_per_m2":50000000.0,"price_per_m2_q25":50000000.0,"price_per_m2_q75":50000000.0,"n_properties":1,"geo_precision_tier":"WARD_APPROXIMATE"}},{"type":"Feature","geometry":{"type":"Point","coordinates":[106.7041639,10.7301154]},"properties":{"area_label":"Phường Tân Hưng, Quận 7","property_type":"land","median_price_per_m2":72826086.95652173,"price_per_m2_q25":72826086.95652173,"price_per_m2_q75":72826086.95652173,"n_properties":1,"geo_precision_tier":"WARD_APPROXIMATE"}},{"type":"Feature","geometry":{"type":"Point","coordinates":[106.7054859,10.7613705]},"properties":{"area_label":"Phường 10, Quận 5","property_type":"apartment","median_price_per_m2":34375000.0,"price_per_m2_q25":34375000.0,"price_per_m2_q75":34375000.0,"n_properties":1,"geo_precision_tier":"WARD_APPROXIMATE"}},{"type":"Feature","geometry":{"type":"Point","coordinates":[106.6734564,10.9113469]},"properties":{"area_label":"Nhị Bình, Huyện Hóc Môn","property_type":"land","median_price_per_m2":4499291.537771052,"price_per_m2_q25":4499291.537771052,"price_per_m2_q75":4499291.537771052,"n_properties":1,"geo_precision_tier":"WARD_APPROXIMATE"}},{"type":"Feature","geometry":{"type":"Point","coordinates":[106.7352095,10.8671903]},"properties":{"area_label":"Phường Tam Bình, Thành phố Thủ Đức","property_type":"land","median_price_per_m2":44615384.615384616,"price_per_m2_q25":44615384.615384616,"price_per_m2_q75":44615384.615384616,"n_properties":1,"geo_precision_tier":"WARD_APPROXIMATE"}},{"type":"Feature","geometry":{"type":"Point","coordinates":[106.7346706,10.7323681]},"properties":{"area_label":"Phú Thuận, Quận 7","property_type":"land","median_price_per_m2":120000000.0,"price_per_m2_q25":120000000.0,"price_per_m2_q75":120000000.0,"n_properties":1,"geo_precision_tier":"WARD_APPROXIMATE"}},{"type":"Feature","geometry":{"type":"Point","coordinates":[106.6363015,10.7681426]},"properties":{"area_label":"Phường 3, Quận 11","property_type":"house","median_price_per_m2":154000000.0,"price_per_m2_q25":154000000.0,"price_per_m2_q75":154000000.0,"n_properties":1,"geo_precision_tier":"WARD_APPROXIMATE"}},{"type":"Feature","geometry":{"type":"Point","coordinates":[106.7389621,10.7681937]},"properties":{"area_label":"Phường Tân Thuận Đông, Quận 7","property_type":"house","median_price_per_m2":75511363.63636363,"price_per_m2_q25":43750000.0,"price_per_m2_q75":107272727.27272727,"n_properties":2,"geo_precision_tier":"WARD_APPROXIMATE"}},{"type":"Feature","geometry":{"type":"Point","coordinates":[106.8164994,10.8464238]},"properties":{"area_label":"Phường Long Thạnh Mỹ, Thành phố Thủ Đức","property_type":"house","median_price_per_m2":78804347.82608695,"price_per_m2_q25":78804347.82608695,"price_per_m2_q75":78804347.82608695,"n_properties":1,"geo_precision_tier":"WARD_APPROXIMATE"}},{"type":"Feature","geometry":{"type":"Point","coordinates":[106.7658051,10.783647]},"properties":{"area_label":"P.Bình Trưng Tây, Thành phố Thủ Đức","property_type":"house","median_price_per_m2":46666666.666666664,"price_per_m2_q25":46666666.666666664,"price_per_m2_q75":46666666.666666664,"n_properties":1,"geo_precision_tier":"WARD_APPROXIMATE"}},{"type":"Feature","geometry":{"type":"Point","coordinates":[106.6736256,10.7497682]},"properties":{"area_label":"phường 4, Quận 5","property_type":"house","median_price_per_m2":263333333.33333334,"price_per_m2_q25":263333333.33333334,"price_per_m2_q75":263333333.33333334,"n_properties":1,"geo_precision_tier":"WARD_APPROXIMATE"}},{"type":"Feature","geometry":{"type":"Point","coordinates":[106.6355204,10.9043448]},"properties":{"area_label":"Xã Đông Thạnh, Huyện Hóc Môn","property_type":"house","median_price_per_m2":44897959.18367347,"price_per_m2_q25":44897959.18367347,"price_per_m2_q75":44897959.18367347,"n_properties":1,"geo_precision_tier":"WARD_APPROXIMATE"}},{"type":"Feature","geometry":{"type":"Point","coordinates":[106.6449965,10.7680178]},"properties":{"area_label":"P.9, Quận 6","property_type":"house","median_price_per_m2":129310344.8275862,"price_per_m2_q25":129310344.8275862,"price_per_m2_q75":129310344.8275862,"n_properties":1,"geo_precision_tier":"WARD_APPROXIMATE"}},{"type":"Feature","geometry":{"type":"Point","coordinates":[106.7582924,10.8618741]},"properties":{"area_label":"Linh Tây, Thành phố Thủ Đức","property_type":"apartment","median_price_per_m2":41176470.5882353,"price_per_m2_q25":41176470.5882353,"price_per_m2_q75":41176470.5882353,"n_properties":1,"geo_precision_tier":"WARD_APPROXIMATE"}},{"type":"Feature","geometry":{"type":"Point","coordinates":[106.6208792,10.8570791]},"properties":{"area_label":"An Phú Đông, Quận 12","property_type":"land","median_price_per_m2":50271132.37639554,"price_per_m2_q25":35087719.298245616,"price_per_m2_q75":65454545.45454545,"n_properties":2,"geo_precision_tier":"WARD_APPROXIMATE"}},{"type":"Feature","geometry":{"type":"Point","coordinates":[106.6356164,10.7354158]},"properties":{"area_label":"Phường 11, Quận 6","property_type":"land","median_price_per_m2":146551724.13793105,"price_per_m2_q25":125000000.0,"price_per_m2_q75":168103448.27586207,"n_properties":2,"geo_precision_tier":"WARD_APPROXIMATE"}},{"type":"Feature","geometry":{"type":"Point","coordinates":[106.7611956,10.8640139]},"properties":{"area_label":"Phường Linh Trung, Thành phố Thủ Đức","property_type":"land","median_price_per_m2":69736842.10526316,"price_per_m2_q25":69736842.10526316,"price_per_m2_q75":69736842.10526316,"n_properties":1,"geo_precision_tier":"WARD_APPROXIMATE"}},{"type":"Feature","geometry":{"type":"Point","coordinates":[106.6319448,10.738776]},"properties":{"area_label":"Phường 10, Quận 6","property_type":"land","median_price_per_m2":130555555.55555555,"price_per_m2_q25":130555555.55555555,"price_per_m2_q75":130555555.55555555,"n_properties":1,"geo_precision_tier":"WARD_APPROXIMATE"}},{"type":"Feature","geometry":{"type":"Point","coordinates":[106.6394942,10.7903558]},"properties":{"area_label":"Tân Phú, Thành phố Thủ Đức","property_type":"land","median_price_per_m2":53097345.132743366,"price_per_m2_q25":53097345.132743366,"price_per_m2_q75":53097345.132743366,"n_properties":1,"geo_precision_tier":"WARD_APPROXIMATE"}},{"type":"Feature","geometry":{"type":"Point","coordinates":[106.6843366,10.8303484]},"properties":{"area_label":"P6, Quận Gò Vấp","property_type":"land","median_price_per_m2":118343195.26627219,"price_per_m2_q25":118343195.26627219,"price_per_m2_q75":118343195.26627219,"n_properties":1,"geo_precision_tier":"WARD_APPROXIMATE"}},{"type":"Feature","geometry":{"type":"Point","coordinates":[106.625199,10.8158476]},"properties":{"area_label":"Tây Thạnh, Quận Tân Phú","property_type":"land","median_price_per_m2":37128712.87128713,"price_per_m2_q25":37128712.87128713,"price_per_m2_q75":37128712.87128713,"n_properties":1,"geo_precision_tier":"WARD_APPROXIMATE"}},{"type":"Feature","geometry":{"type":"Point","coordinates":[106.7658051,10.783647]},"properties":{"area_label":"P. Bình Trưng Tây, Thành phố Thủ Đức","property_type":"land","median_price_per_m2":147637795.27559054,"price_per_m2_q25":147637795.27559054,"price_per_m2_q75":147637795.27559054,"n_properties":1,"geo_precision_tier":"WARD_APPROXIMATE"}},{"type":"Feature","geometry":{"type":"Point","coordinates":[106.5832489,10.8937624]},"properties":{"area_label":"Xã Tân Xuân, Huyện Hóc Môn","property_type":"land","median_price_per_m2":64000000.0,"price_per_m2_q25":64000000.0,"price_per_m2_q75":64000000.0,"n_properties":1,"geo_precision_tier":"WARD_APPROXIMATE"}}]}